svc_name	sequence	stop_id	name_en	name_mm	road_en	road_mm	township_en	township_mm	lat	lng
15	1	1035	Moke Wa	မုခ်ဝ	Bo Hmu Ba Htoo Road	ဗိုလ်မှူးဗထူးလမ်း	North Dagon	မြောက်ဒဂုံ	16.904572413792256	96.20403635082766
15	2	4	Gate Haung	ဂိတ်ဟောင်း	Bo Hmu Ba Htoo Road	ဗိုလ်မှူးဗထူးလမ်း	North Dagon	မြောက်ဒဂုံ	16.902497980384474	96.20003734482454
15	3	1028	Zay Lay	ဈေးလေး	Bo Hmu Ba Htoo Road	ဗိုလ်မှူးဗထူးလမ်း	North Dagon	မြောက်ဒဂုံ	16.90146845418412	96.19797575287522
15	4	1026	Sein Pan	စိန်ပန်း	Bo Hmu Ba Htoo Road	ဗိုလ်မှူးဗထူးလမ်း	North Dagon	မြောက်ဒဂုံ	16.900651750342817	96.19650150183588
15	5	1022	Lay-sae-chauk Lan Sone	(၄၆) လမ်းဆုံ	Bo Hmu Ba Htoo Road	ဗိုလ်မှူးဗထူးလမ်း	North Dagon	မြောက်ဒဂုံ	16.898677323017722	96.19268000358717
15	6	1024	Myawaddy	မြဝတီ	Pyi Htaung Su Main Road	ပြည်ထောင်စုလမ်းမကြီး	North Dagon	မြောက်ဒဂုံ	16.901964	96.190835
15	7	1017	A Aye Saing	အအေးဆိုင်	Pyi Htaung Su Main Road	ပြည်ထောင်စုလမ်းမကြီး	North Dagon	မြောက်ဒဂုံ	16.903188164191445	96.19007346220316
15	8	879	Ngar-sae Kwae	(၅၀) ကွေ့	Pyi Htaung Su Main Road	ပြည်ထောင်စုလမ်းမကြီး	North Dagon	မြောက်ဒဂုံ	16.908516092033064	96.18715706281367
15	9	875	Kyan Mar Yae	ကျန်းမာရေး	Yarza Thingyan Road	ရာဇသင်္ကြန်လမ်း	North Dagon	မြောက်ဒဂုံ	16.90772047014759	96.1850186926313
15	10	871	Duyar Lan	ဒူးယားလမ်း	Yarza Thingyan Road	ရာဇသင်္ကြန်လမ်း	North Dagon	မြောက်ဒဂုံ	16.90759851218697	96.18225737940523
15	11	873	Dawei Gyaung	ထားဝယ်ချောင်	Yarza Thingyan Road	ရာဇသင်္ကြန်လမ်း	North Dagon	မြောက်ဒဂုံ	16.90795003078332	96.17665512487295
15	12	854	Kyoe Tadar	ကြိုးတံတား	Karuna Road	ကရုဏာ	North Okkalapa	မြောက်ဥက္ကလာပ	16.9083532749157	96.172353385482
15	13	856	Myittar	မေတ္တာ	Thu Nandar Road	သုနန္ဒာလမ်း	North Okkalapa	မြောက်ဥက္ကလာပ	16.911973	96.172931
15	14	846	Gate Haung Kwae	ဂိတ်ဟောင်းကွေ.	Khaymarthi Road	ခေမာသီလမ်း	North Okkalapa	မြောက်ဥက္ကလာပ	16.9141634793909	96.17313623428346
15	15	860	Sabei	စံပယ်	Khaymarthi Road	ခေမာသီလမ်း	North Okkalapa	မြောက်ဥက္ကလာပ	16.914244454419183	96.17083351593466
15	16	852	Kyaung Lan	ကျောင်းလမ်း	Khaymarthi Road	ခေမာသီလမ်း	North Okkalapa	မြောက်ဥက္ကလာပ	16.914089621473913	96.16931676864625
15	17	847	Kan Tharyar	ကန်သာယာ	Khaymarthi Road	ခေမာသီလမ်း	North Okkalapa	မြောက်ဥက္ကလာပ	16.913153143078006	96.16594741120936
15	18	848	Kan Tharyar	ကန်သာယာ	Thudhamar Road	သုဓမ္မာလမ်း	North Okkalapa	မြောက်ဥက္ကလာပ	16.91255523875324	96.1656310572289
15	19	2181	Za-myin-zwe Zay	(ဈ) ဈေး	Khaymarthi Road	ခေမာသီလမ်း	North Okkalapa	မြောက်ဥက္ကလာပ	16.91189421976302	96.1621455056593
15	20	806	Yoke Shin Yon	ရုပ်ရှင်ရုံ	Khaymarthi Road	ခေမာသီလမ်း	North Okkalapa	မြောက်ဥက္ကလာပ	16.911275	96.160062
15	21	796	Nwe Thar Gi	နွယ်သာဂီ	Khaymarthi Road	ခေမာသီလမ်း	North Okkalapa	မြောက်ဥက္ကလာပ	16.909899460462768	96.15677897119895
15	22	799	Mya Yadanar	ဲမြရတနာ	Khaymarthi Road	ခေမာသီလမ်း	North Okkalapa	မြောက်ဥက္ကလာပ	16.908163431703446	96.15518008125947
15	23	808	Yone	ရုံး	Khaymarthi Road	ခေမာသီလမ်း	North Okkalapa	မြောက်ဥက္ကလာပ	16.906204	96.154612
15	24	802	Oakkar	ဥက္ကာ	Khaymarthi Road	ခေမာသီလမ်း	North Okkalapa	မြောက်ဥက္ကလာပ	16.903042	96.154445
15	25	798	May Dar Wi	မေဓာဝီ	Khaymarthi Road	ခေမာသီလမ်း	North Okkalapa	မြောက်ဥက္ကလာပ	16.899901488038225	96.15467708325015
15	26	892	Yone Thit	ရုံးသစ်	Khaymarthi Road	ခေမာသီလမ်း	North Okkalapa	မြောက်ဥက္ကလာပ	16.895928	96.155689
15	27	888	Myauk Okkalar Awine	မြောက်ဥက္ကလာအဝိုင်း	Thudhamar Road	သုဓမ္မာလမ်း	North Okkalapa	မြောက်ဥက္ကလာပ	16.892729094424542	96.15465329959991
15	28	886	Kyauk Yae Twin	ကျောက်ရေတွင်း	Thudhamar Road	သုဓမ္မာလမ်း	North Okkalapa	မြောက်ဥက္ကလာပ	16.889501887498064	96.15369533188642
15	29	890	Phone Gyi Lan	ဘုန်းကြီးလမ်း	Thudhamar Road	သုဓမ္မာလမ်း	North Okkalapa	မြောက်ဥက္ကလာပ	16.882105361836498	96.15514125209302
15	30	1275	Hnit Zay	(၂) ဈေး	Thudhamar Road	သုဓမ္မာလမ်း	North Okkalapa	မြောက်ဥက္ကလာပ	16.878934279385433	96.15580279380085
15	31	1821	Ngar Lan	(၅) လမ်း	Thudhamar Road	သုဓမ္မာလမ်း	North Okkalapa	မြောက်ဥက္ကလာပ	16.874205	96.156698
15	32	1280	Lan Wa/ Nawaday	လမ်းဝ/နဝဒေး	Thudhamar Road	သုဓမ္မာလမ်း	North Okkalapa	မြောက်ဥက္ကလာပ	16.8672229261052	96.1545687261969
15	33	1819	Nawaday	နဝဒေး	Kabar Aye Pagoda Road	ကမ္ဘာအေးဘုရားလမ်း	Mayangone	မရမ်းကုန်း	16.866879	96.152638
15	34	1265	Myaing Hay Wun	မြိုင်ဟေဝန်ပန်းခြံ	Kabar Aye Pagoda Road	ကမ္ဘာအေးဘုရားလမ်း	Mayangone	မရမ်းကုန်း	16.866771	96.143438
15	35	1267	Shit Mile	(၈) မိုင်	Kyaik Wine Pagoda Road	ကျိုက်ဝိုင်းဘုရားလမ်း	Mayangone	မရမ်းကုန်း	16.86567957937846	96.14160246681422
15	36	1271	Ye Baw Haung	ရဲဘော်ဟောင်း	Kyaik Wine Pagoda Road	ကျိုက်ဝိုင်းဘုရားလမ်း	Mayangone	မရမ်းကုန်း	16.867634	96.137322
15	37	1255	Kyaik Wine	ကျိုက်ဝိုင်း	Kyaik Wine Pagoda Road	ကျိုက်ဝိုင်းဘုရားလမ်း	Mayangone	မရမ်းကုန်း	16.86674	96.128717
15	38	1257	Ye Yan Aung	ရဲရန်အောင်	Kyaik Wine Pagoda Road	ကျိုက်ဝိုင်းဘုရားလမ်း	Mayangone	မရမ်းကုန်း	16.866268	96.126003
15	39	1221	Thamine Lan Son	သမိုင်းလမ်းဆုံ	Kyaik Wine Pagoda Road	ကျိုက်ဝိုင်းဘုရားလမ်း	Mayangone	မရမ်းကုန်း	16.863193	96.122404
15	40	1216	Kyway Tit	ကြွေ (၁)	Thamine Buteryon Road	သမိုင်းဘူတာရုံလမ်း	Mayangone	မရမ်းကုန်း	16.86129067214001	96.1205073958263
15	41	1224	U Ba Han	ဦးဘဟန်	Thamine Buteryon Road	သမိုင်းဘူတာရုံလမ်း	Mayangone	မရမ်းကုန်း	16.86117	96.118397
15	42	1207	Zay Butar	ဈေးဘူတာ	Thamine Buteryon Road	သမိုင်းဘူတာရုံလမ်း	Mayangone	မရမ်းကုန်း	16.860185	96.112882
15	43	1194	Bayint Naung Lan Sone	ဘုရင့်နောင်လမ်းဆုံ	Thamine Buteryon Road	သမိုင်းဘူတာရုံလမ်း	Mayangone	မရမ်းကုန်း	16.859507	96.109374
15	44	35	Dhamar Yon	ဓမ္မာရုံ	Bayint Naung Road	ဘုရင့်နောင်လမ်း	Mayangone	မရမ်းကုန်း	16.861069316974206	96.1081514018588
15	45	1309	Bayint Naung Zay/ Zay Pwae Yon	ဘုရင့်နောင်ဈေး/ဈေးပွဲရုံ	Bayint Naung Road	ဘုရင့်နောင်လမ်း	Mayangone	မရမ်းကုန်း	16.864492	96.10685
15	46	1315	Kyoe Kone Lan Sone	ကြို့ကုန်းလမ်းဆုံ	Bayint Naung Road	ဘုရင့်နောင်လမ်း	Insein	အင်းစိန်	16.871679	96.10449
15	47	1307	Padauk Lan	ပိတောက်လမ်း	Bayint Naung Road	ဘုရင့်နောင်လမ်း	Insein	အင်းစိန်	16.875683	96.101595
15	48	1303	Myo Thit Zay	မြို့သစ်ဈေးု	Bayint Naung Road	ဘုရင့်နောင်လမ်း	Insein	အင်းစိန်	16.87911318356011	96.10005002003163
15	49	1304	Nyaung Pin	ညောင်ပင်	Bayint Naung Road	ဘုရင့်နောင်လမ်း	Insein	အင်းစိန်	16.881557869464423	96.09919393435123
15	50	1329	Pauk Taw Wa	ပေါက်တောဝ	Bayint Naung Road	ဘုရင့်နောင်လမ်း	Insein	အင်းစိန်	16.884871212723404	96.09790085814895
15	51	2395	Pauk Taw Wa	ပေါက်တောဝ	Hlaing River Road	လှိုင်မြစ်လမ်း	Insein	အင်းစိန်	16.885452461951	96.0977136483416
15	52	1326	Lay-sae-shit Gate	(၄၈) ဂိတ်	Bayint Naung Road	ဘုရင့်နောင်လမ်း	Insein	အင်းစိန်	16.886319	96.097508
15	53	1327	Min Zedi	မင်းစေတီ	Bayint Naung Road	ဘုရင့်နောင်လမ်း	Insein	အင်းစိန်	16.890691905422955	96.09579406678678
15	54	1334	Sayardaw Gyi	ဆရာတော်ကြီး	Bayint Naung Road	ဘုရင့်နောင်လမ်း	Insein	အင်းစိန်	16.89456158731092	96.09481154009701
15	55	1336	Ywarma	ရွာမ	Bayint Naung Road	ဘုရင့်နောင်လမ်း	Insein	အင်းစိန်	16.898276805037824	96.095501286909
15	56	1357	Pyi Taw Thar	ပြည်တော်သာ	Bayint Naung Road	ဘုရင့်နောင်လမ်း	Insein	အင်းစိန်	16.900651429547175	96.09562030993403
15	57	44	Japan Lan	ဂျပန်လမ်း	Lower Mingalardon Road	အောက်မင်္ဂလာဒုံလမ်း	Insein	အင်းစိန်	16.90502450516036	96.09781016595663
15	58	1356	Phot Kan Zay	ဖော့ကန်ဈေး	Lower Mingalardon Road	အောက်မင်္ဂလာဒုံလမ်း	Insein	အင်းစိန်	16.907637768103342	96.0976756573655
15	59	1364	Saung Hnit	ဆောင် (၂)	Lower Mingalardon Road	အောက်မင်္ဂလာဒုံလမ်း	Insein	အင်းစိန်	16.911877058218828	96.0973906517029
15	60	42	Tit Gate	(၁) ဂိတ်	Lower Mingalardon Road	အောက်မင်္ဂလာဒုံလမ်း	Insein	အင်းစိန်	16.915288559472796	96.0973123995973
15	61	1381	Kyaung Gate	ကျောင်းဂိတ်	Lower Mingalardon Road	အောက်မင်္ဂလာဒုံလမ်း	Insein	အင်းစိန်	16.917880275512832	96.09750537212676
15	62	1378	Aung San Zay	အောင်ဆန်းဈေး	Lower Mingalardon Road	အောက်မင်္ဂလာဒုံလမ်း	Insein	အင်းစိန်	16.92132490016646	96.0976821674194
15	63	1384	Ywar Thit	ရွာသစ်	Lower Mingalardon Road	အောက်မင်္ဂလာဒုံလမ်း	Insein	အင်းစိန်	16.92545	96.098632
15	64	1380	Bo Chan	ဘိုခြံ	Lower Mingalardon Road	အောက်မင်္ဂလာဒုံလမ်း	Insein	အင်းစိန်	16.929958043309373	96.10113552495022
15	65	69	Danyin Gone Lan Sone	ဒညင်းကုန်းလမ်းဆုံ	Lower Mingalardon Road	အောက်မင်္ဂလာဒုံလမ်း	Insein	အင်းစိန်	16.933232955911787	96.10197149799207
15	66	1379	Bo Chan	ဘိုခြံ	Lower Mingalardon Road	အောက်မင်္ဂလာဒုံလမ်း	Insein	အင်းစိန်	16.930100441055117	96.10094076488167
15	67	1383	Ywar Thit	ရွာသစ်	Lower Mingalardon Road	အောက်မင်္ဂလာဒုံလမ်း	Insein	အင်းစိန်	16.92555507485196	96.09845086455609
15	68	1377	Aung San Zay	အောင်ဆန်းဈေး	Lower Mingalardon Road	အောက်မင်္ဂလာဒုံလမ်း	Insein	အင်းစိန်	16.921601395436287	96.097571910359
15	69	1382	Kyaung Gate	ကျောင်းဂိတ်	Lower Mingalardon Road	အောက်မင်္ဂလာဒုံလမ်း	Insein	အင်းစိန်	16.917969040914706	96.09728939847628
15	70	41	Tit Gate	(၁) ဂိတ်	Lower Mingalardon Road	အောက်မင်္ဂလာဒုံလမ်း	Insein	အင်းစိန်	16.91551400101933	96.09716179775207
15	71	1363	Saung Hnit	ဆောင် (၂)	Lower Mingalardon Road	အောက်မင်္ဂလာဒုံလမ်း	Insein	အင်းစိန်	16.91195420496131	96.09718852210791
15	72	1355	Phot Kan Zay	ဖော့ကန်ဈေး	Lower Mingalardon Road	အောက်မင်္ဂလာဒုံလမ်း	Insein	အင်းစိန်	16.907714315111864	96.09755581710488
15	73	43	Japan Lan	ဂျပန်လမ်း	Lower Mingalardon Road	အောက်မင်္ဂလာဒုံလမ်း	Insein	အင်းစိန်	16.905062077475037	96.09768565278502
15	74	1358	Pyi Taw Thar	ပြည်တော်သာ	Bayint Naung Road	ဘုရင့်နောင်လမ်း	Insein	အင်းစိန်	16.900814	96.095425
15	75	1335	Ywarma	ရွာမ	Bayint Naung Road	ဘုရင့်နောင်လမ်း	Insein	အင်းစိန်	16.898545875580638	96.09545824583621
15	76	1333	Sayardaw Gyi	ဆရာတော်ကြီး	Bayint Naung Road	ဘုရင့်နောင်လမ်း	Insein	အင်းစိန်	16.894631041797663	96.09448984265329
15	77	1328	Min Zedi	မင်းစေတီ	Bayint Naung Road	ဘုရင့်နောင်လမ်း	Insein	အင်းစိန်	16.890683724701926	96.09557161107661
15	78	2201	Lay-sae-shit Gate	(၄၈) ဂိတ်	Bayint Naung Road	ဘုရင့်နောင်လမ်း	Insein	အင်းစိန်	16.88635	96.097422
15	79	1330	Pauk Taw Wa	ပေါက်တောဝ	Bayint Naung Road	ဘုရင့်နောင်လမ်း	Insein	အင်းစိန်	16.884824192173284	96.09771021176131
15	80	1305	Nyaung Pin	ညောင်ပင်	Bayint Naung Road	ဘုရင့်နောင်လမ်း	Insein	အင်းစိန်	16.88148744768163	96.09900986775757
15	81	1302	Myo Thit Zay	မြို့သစ်ဈေးု	Bayint Naung Road	ဘုရင့်နောင်လမ်း	Insein	အင်းစိန်	16.879021345302874	96.09977603657171
15	82	1306	Padauk Lan	ပိတောက်လမ်း	Bayint Naung Road	ဘုရင့်နောင်လမ်း	Insein	အင်းစိန်	16.875324	96.101637
15	83	1314	Kyoe Kone Lan Sone	ကြို့ကုန်းလမ်းဆုံ	Bayint Naung Road	ဘုရင့်နောင်လမ်း	Insein	အင်းစိန်	16.871474	96.104232
15	84	1308	Bayint Naung Zay/ Zay Pwae Yon	ဘုရင့်နောင်ဈေး/ဈေးပွဲရုံ	Bayint Naung Road	ဘုရင့်နောင်လမ်း	Mayangone	မရမ်းကုန်း	16.864245	96.106743
15	85	1193	Bayint Naung Lan Sone	ဘုရင့်နောင်လမ်းဆုံ	Bayint Naung Road	ဘုရင့်နောင်လမ်း	Mayangone	မရမ်းကုန်း	16.862482665993724	96.10756609356032
15	86	1195	Bayint Naung Lan Sone	ဘုရင့်နောင်လမ်းဆုံ	Thamine Buteryon Road	သမိုင်းဘူတာရုံလမ်း	Mayangone	မရမ်းကုန်း	16.859289522179772	96.10922870691867
15	87	1208	Zay Butar	ဈေးဘူတာ	Thamine Buteryon Road	သမိုင်းဘူတာရုံလမ်း	Mayangone	မရမ်းကုန်း	16.860016582911346	96.11289853462951
15	88	1225	U Ba Han	ဦးဘဟန်	Thamine Buteryon Road	သမိုင်းဘူတာရုံလမ်း	Mayangone	မရမ်းကုန်း	16.861083	96.118365
15	89	2200	Kyway Tit	ကြွေ (၁)	Thamine Buteryon Road	သမိုင်းဘူတာရုံလမ်း	Mayangone	မရမ်းကုန်း	16.861146243839613	96.12073119264097
15	90	1220	Thamine Lan Son	သမိုင်းလမ်းဆုံ	Kyaik Wine Pagoda Road	ကျိုက်ဝိုင်းဘုရားလမ်း	Mayangone	မရမ်းကုန်း	16.863106	96.122447
15	91	1256	Ye Yan Aung	ရဲရန်အောင်	Kyaik Wine Pagoda Road	ကျိုက်ဝိုင်းဘုရားလမ်း	Mayangone	မရမ်းကုန်း	16.866135	96.126088
15	92	1254	Kyaik Wine	ကျိုက်ဝိုင်း	Kyaik Wine Pagoda Road	ကျိုက်ဝိုင်းဘုရားလမ်း	Mayangone	မရမ်းကုန်း	16.866484	96.128696
15	93	1270	Ye Baw Haung	ရဲဘော်ဟောင်း	Kyaik Wine Pagoda Road	ကျိုက်ဝိုင်းဘုရားလမ်း	Mayangone	မရမ်းကုန်း	16.86727899506374	96.13734873477371
15	94	1266	Shit Mile	(၈) မိုင်	Kyaik Wine Pagoda Road	ကျိုက်ဝိုင်းဘုရားလမ်း	Mayangone	မရမ်းကုန်း	16.864713	96.141169
15	95	1262	Myaing Hay Wun	မြိုင်ဟေဝန်ပန်းခြံ	Kabar Aye Pagoda Road	ကမ္ဘာအေးဘုရားလမ်း	Mayangone	မရမ်းကုန်း	16.866588278879597	96.14353745011616
15	96	1820	Nawaday	နဝဒေး	Kabar Aye Pagoda Road	ကမ္ဘာအေးဘုရားလမ်း	Mayangone	မရမ်းကုန်း	16.866648920187888	96.15249755792323
15	97	38	Lan Wa/ Nawaday	လမ်းဝ/နဝဒေး	Thudhamar Road	သုဓမ္မာလမ်း	North Okkalapa	မြောက်ဥက္ကလာပ	16.867269	96.154778
15	98	1281	Ngar Lan	(၅) လမ်း	Thudhamar Road	သုဓမ္မာလမ်း	North Okkalapa	မြောက်ဥက္ကလာပ	16.874128	96.156913
15	99	1274	Hnit Zay	(၂) ဈေး	Thudhamar Road	သုဓမ္မာလမ်း	North Okkalapa	မြောက်ဥက္ကလာပ	16.878721968315737	96.15608145017178
15	100	889	Phone Gyi Lan	ဘုန်းကြီးလမ်း	Thudhamar Road	သုဓမ္မာလမ်း	North Okkalapa	မြောက်ဥက္ကလာပ	16.881808877188373	96.15557153709234
15	101	885	Kyauk Yae Twin	ကျောက်ရေတွင်း	Thudhamar Road	သုဓမ္မာလမ်း	North Okkalapa	မြောက်ဥက္ကလာပ	16.88791116167424	96.15428918972613
15	102	887	Myauk Okkalar Awine	မြောက်ဥက္ကလာအဝိုင်း	Thudhamar Road	သုဓမ္မာလမ်း	North Okkalapa	မြောက်ဥက္ကလာပ	16.892739761327437	96.15506128873677
15	103	891	Yone Thit	ရုံးသစ်	Khaymarthi Road	ခေမာသီလမ်း	North Okkalapa	မြောက်ဥက္ကလာပ	16.895877	96.155904
15	104	797	May Dar Wi	မေဓာဝီ	Khaymarthi Road	ခေမာသီလမ်း	North Okkalapa	မြောက်ဥက္ကလာပ	16.899113067809424	96.15498803090304
15	105	801	Oakkar	ဥက္ကာ	Khaymarthi Road	ခေမာသီလမ်း	North Okkalapa	မြောက်ဥက္ကလာပ	16.902611	96.15467
15	106	807	Yone	ရုံး	Khaymarthi Road	ခေမာသီလမ်း	North Okkalapa	မြောက်ဥက္ကလာပ	16.906199	96.154768
15	107	800	Mya Yadanar	ဲမြရတနာ	Khaymarthi Road	ခေမာသီလမ်း	North Okkalapa	မြောက်ဥက္ကလာပ	16.908146329966318	96.15539201768117
15	108	795	Nwe Thar Gi	နွယ်သာဂီ	Khaymarthi Road	ခေမာသီလမ်း	North Okkalapa	မြောက်ဥက္ကလာပ	16.909601	96.156623
15	109	805	Yoke Shin Yon	ရုပ်ရှင်ရုံ	Khaymarthi Road	ခေမာသီလမ်း	North Okkalapa	မြောက်ဥက္ကလာပ	16.911152	96.1601
15	110	867	Za-myin-zwe Zay	(ဈ) ဈေး	Khaymarthi Road	ခေမာသီလမ်း	North Okkalapa	မြောက်ဥက္ကလာပ	16.91164557770474	96.16181611781941
15	111	849	Kan Tharyar	ကန်သာယာ	Thudhamar Road	သုဓမ္မာလမ်း	North Okkalapa	မြောက်ဥက္ကလာပ	16.913262787735245	96.16538791917266
15	112	2359	Kan Tharyar	ကန်သာယာ	Khaymarthi Road	ခေမာသီလမ်း	North Okkalapa	မြောက်ဥက္ကလာပ	16.913001857805305	96.16601165849717
15	113	851	Kyaung Lan	ကျောင်းလမ်း	Khaymarthi Road	ခေမာသီလမ်း	North Okkalapa	မြောက်ဥက္ကလာပ	16.913882	96.169347
15	114	859	Sabei	စံပယ်	Khaymarthi Road	ခေမာသီလမ်း	North Okkalapa	မြောက်ဥက္ကလာပ	16.914087	96.170817
15	115	844	Gate Haung Kwae	ဂိတ်ဟောင်းကွေ.	Khaymarthi Road	ခေမာသီလမ်း	North Okkalapa	မြောက်ဥက္ကလာပ	16.914013718600703	96.17309331893922
15	116	855	Myittar	မေတ္တာ	Thu Nandar Road	သုနန္ဒာလမ်း	North Okkalapa	မြောက်ဥက္ကလာပ	16.91174686299499	96.17276952601972
15	117	853	Kyoe Tadar	ကြိုးတံတား	Karuna Road	ကရုဏာ	North Okkalapa	မြောက်ဥက္ကလာပ	16.908215719302802	96.17230659350756
15	118	872	Dawei Gyaung	ထားဝယ်ချောင်	Yarza Thingyan Road	ရာဇသင်္ကြန်လမ်း	North Dagon	မြောက်ဒဂုံ	16.907804816170874	96.17672536522151
15	119	870	Duyar Lan	ဒူးယားလမ်း	Yarza Thingyan Road	ရာဇသင်္ကြန်လမ်း	North Dagon	မြောက်ဒဂုံ	16.907405	96.181823
15	120	874	Kyan Mar Yae	ကျန်းမာရေး	Yarza Thingyan Road	ရာဇသင်္ကြန်လမ်း	North Dagon	မြောက်ဒဂုံ	16.907466	96.184977
15	121	878	Ngar-sae Kwae	(၅၀) ကွေ့	Pyi Htaung Su Main Road	ပြည်ထောင်စုလမ်းမကြီး	North Dagon	မြောက်ဒဂုံ	16.908431	96.186887
15	122	1018	A Aye Saing	အအေးဆိုင်	Pyi Htaung Su Main Road	ပြည်ထောင်စုလမ်းမကြီး	North Dagon	မြောက်ဒဂုံ	16.90350883495074	96.18970149429516
15	123	1023	Myawaddy	မြဝတီ	Pyi Htaung Su Main Road	ပြည်ထောင်စုလမ်းမကြီး	North Dagon	မြောက်ဒဂုံ	16.90141	96.190749
15	124	1020	Lay-sae-chauk Hmat Taing	(၄၆) မှတ်တိုင်	Pyi Htaung Su Main Road	ပြည်ထောင်စုလမ်းမကြီး	North Dagon	မြောက်ဒဂုံ	16.898700981942675	96.19247929891573
15	125	1025	Sein Pan	စိန်ပန်း	Bo Hmu Ba Htoo Road	ဗိုလ်မှူးဗထူးလမ်း	North Dagon	မြောက်ဒဂုံ	16.900489708373588	96.1964267352596
15	126	1027	Zay Lay	ဈေးလေး	Bo Hmu Ba Htoo Road	ဗိုလ်မှူးဗထူးလမ်း	North Dagon	မြောက်ဒဂုံ	16.901195417976574	96.19785446673633
15	127	3	Gate Haung	ဂိတ်ဟောင်း	Bo Hmu Ba Htoo Road	ဗိုလ်မှူးဗထူးလမ်း	North Dagon	မြောက်ဒဂုံ	16.902339969961016	96.20012610917912
15	128	1034	Moke Wa	မုခ်ဝ	Bo Hmu Ba Htoo Road	ဗိုလ်မှူးဗထူးလမ်း	North Dagon	မြောက်ဒဂုံ	16.904480808468755	96.20416122023018
