svc_name	sequence	stop_id	name_en	name_mm	road_en	road_mm	township_en	township_mm	lat	lng
11	1	813	Aung Mingalar A Way Pyay	အောင်မင်္ဂလာအဝေးပြေး	Thudhamar Road	သုဓမ္မာလမ်း	North Okkalapa	မြောက်ဥက္ကလာပ	16.926517	96.156374
11	2	815	Tat Htate	တပ်ထိပ်	ႊThudhamar Road	သုဓမ္မာလမ်း	North Okkalapa	မြောက်ဥက္ကလာပ	16.929761	96.154894
11	3	1418	Ah-Hmat-Thone Lan Sone	အမှတ် (၃) လမ်းဆုံ	No. 3 Main Road	အမှတ်(၃)လမ်းမ	Mingalardon	မင်္ဂလာဒုံ	16.93571377782574	96.15230129566044
11	4	2396	Khayae Pin Yate Mon	ခရေပင်ရိပ်မွန်	Khayae Pin Road	ခရေပင်လမ်း	Mingaladon	undefined	16.9345191529413	96.1488836165518
11	5	1402	Thone Yarthi	သုံးရာသီ	Khayae Pin Road	ခရေပင်လမ်း	Mingalardon	မင်္ဂလာဒုံ	16.931745022929974	96.14126306260006
11	6	1404	Yar Thet Pan	ရာသက်ပန်	Khayae Pin Road	ခရေပင်လမ်း	Mingalardon	မင်္ဂလာဒုံ	16.93017754697439	96.13692542079208
11	7	1396	Khayae Pin Lan Khawe	ခရေပင်လမ်းခွဲ	Khayae Pin Road	ခရေပင်လမ်း	Mingalardon	မင်္ဂလာဒုံ	16.928199225787175	96.13210053183141
11	8	1398	Khayae Pin Lan Khawe	ခရေပင်လမ်းခွဲ	No. 1 Main Road	အမှတ်(၁)လမ်းမ	Mingalardon	မင်္ဂလာဒုံ	16.92723344884106	96.13146262709053
11	9	1062	Sar Taik	စာတိုက်	No. 1 Main Road	အမှတ်(၁)လမ်းမ	Mingalardon	မင်္ဂလာဒုံ	16.923187459952388	96.1333077773452
11	10	1400	Say Kyaung	ဆေးကျောင်း	No. 1 Main Road	အမှတ်(၁)လမ်းမ	Mingalardon	မင်္ဂလာဒုံ	16.92033380801368	96.13393118826936
11	11	1393	B.O.C	ဘီအိုစီ	No. 1 Main Road	အမှတ်(၁)လမ်းမ	Mingalardon	မင်္ဂလာဒုံ	16.915950755971124	96.13451996818186
11	12	1374	Pan Chan Kone	ပန်းခြံကုန်း	No. 1 Main Road	အမှတ်(၁)လမ်းမ	Mingalardon	မင်္ဂလာဒုံ	16.9111	96.131848
11	13	1372	Kalar Paya	ကုလားဘုရား	No. 1 Main Road	အမှတ်(၁)လမ်းမ	Mingalardon	မင်္ဂလာဒုံ	16.905906	96.128758
11	14	46	Htan Pin Kone	ထန်းပင်ကုန်း	No. 1 Main Road	အမှတ်(၁)လမ်းမ	Mingalardon	မင်္ဂလာဒုံ	16.900289331115886	96.1241097492166
11	15	2250	Saw Bwar Gyi Kone Lan Sone	စော်ဘွားကြီးကုန်းလမ်းဆုံ	Insein Butaryon Road	အင်းစိန်ဘူတာရုံလမ်း	Insein	အင်းစိန်	16.892777336089576	96.11948794685304
11	16	1340	Ar Lain Ngar Sint	အာလိန်ငါးဆင့်	Lan Thit Road	လမ်းသစ်လမ်း	Insein	အင်းစိန်	16.891645759022335	96.1164910811931
11	17	1354	Workshop	ဝပ်ရှော့	Lan Thit Road	လမ်းသစ်လမ်း	Insein	အင်းစိန်	16.89126222912923	96.1147232539952
11	18	1352	Oakyin Wa	အုတ်ကျင်းဝ	Lan Thit Road	လမ်းသစ်လမ်း	Insein	အင်းစိန်	16.890684205920813	96.11147069837901
11	19	2195	Insein Pan Chan	အင်းစိန်ပန်းခြံ	Lan Thit Road	လမ်းသစ်လမ်း	Insein	အင်းစိန်	16.888451657862788	96.10784619580956
11	20	1345	Insein Pan Chan	အင်းစိန်ပန်းခြံ	Min Gyi Road	မင်းကြီးလမ်း	Insein	အင်းစိန်	16.887531514108538	96.10758610535414
11	21	1317	Myo Thit	မြို့သစ်	Baho Road	ဗဟိုလမ်း	Insein	အင်းစိန်	16.876714345607116	96.11178317572922
11	22	2199	Thamine Lan Son	သမိုင်းလမ်းဆုံ	Baho Road	ဗဟိုလမ်း	Mayangone	မရမ်းကုန်း	16.860917829515294	96.11471889540553
11	23	1199	Oakyin	အုတ်ကျင်း	Baho Road	ဗဟိုလမ်း	Hlaing	လှိုင်	16.855354	96.116141
11	24	1206	Thiri Myaing	သီရိမြိုင်	Baho Road	ဗဟိုလမ်း	Hlaing	လှိုင်	16.848987	96.117858
11	25	1203	Than Lan	သံလမ်း	Baho Road	ဗဟိုလမ်း	Hlaing	လှိုင်	16.845168	96.118845
11	26	1173	Kamayut	ကမာရွတ်	Baho Road	ဗဟိုလမ်း	Hlaing	လှိုင်	16.840588	96.120111
11	27	1169	Butar Yon Lan	ဘူတာရုံလမ်း	Baho Road	ဗဟိုလမ်း	Hlaing	လှိုင်	16.837255	96.121173
11	28	2197	Ywarma Kwae	ရွာမကွေ့	Baho Road	ဗဟိုလမ်း	Hlaing	လှိုင်	16.834529	96.1219
11	29	2198	Site Kar Gate	ဆိုက်ကားဂိတ်	Baho Road	ဗဟိုလမ်း	Kamayut	ကမာရွတ်	16.831664	96.123331
11	30	282	B.R.B	ဘီအာဘီ	Baho Road	ဗဟိုလမ်း	Kamayut	ကမာရွတ်	16.829474	96.124027
11	31	293	Khaing Shwe Wah	ခိုင်ရွှေဝါ	Baho Road	ဗဟိုလမ်း	Kamayut	ကမာရွတ်	16.82567695409153	96.12509425973259
11	32	297	Pyi Yeik Mon	ပြည်ရိပ်မွန်	Baho Road	ဗဟိုလမ်း	Kamayut	ကမာရွတ်	16.821953415987313	96.12567258322088
11	33	312	Ye Win	ရဲဝင်း	Baho Road	ဗဟိုလမ်း	Kamayut	ကမာရွတ်	16.81817455052221	96.12637565005573
11	34	284	Hantharwaddy	ဟံသာဝတီ	Upper Kyee Myin Daing Road	အထက်ကြည့်မြင်တိုင်လမ်း	Kyee Myin Daing	ကြည့်မြင်တိုင်	16.816320576623713	96.12593807280065
11	35	279	Nat Sin Lan	နတ်စင်လမ်း	Upper Kyee Myin Daing Road	အထက်ကြည့်မြင်တိုင်လမ်း	Kyee Myin Daing	ကြည့်မြင်တိုင်	16.814202007934437	96.12586942501369
11	36	300	Salin Kwin	စလင်းကွင်း	Upper Kyee Myin Daing Road	အထက်ကြည့်မြင်တိုင်လမ်း	Kyee Myin Daing	ကြည့်မြင်တိုင်	16.812730481580218	96.12592935562135
11	37	250	Kyee Myin Daing Nya Zay	ကြည်မြင်တိုင်ညဈေး	Upper Kyee Myin Daing Road	အထက်ကြည့်မြင်တိုင်လမ်း	Kyee Myin Daing	ကြည့်မြင်တိုင်	16.809933587198	96.12593092722818
11	38	256	Kyee Myin Daing Butar	ကြည့်မြင်တိုင်ဘူတာ	Upper Kyee Myin Daing Road	အထက်ကြည့်မြင်တိုင်လမ်း	Kyee Myin Daing	ကြည့်မြင်တိုင်	16.806301299283557	96.12574257194865
11	39	254	Koe Htat Kyee	(၉) ထပ်ကြီး	Bargayar Road	ဗားဂရာလမ်း	San Chaung	စမ်းချောင်း	16.80377692571842	96.12809622083661
11	40	260	Shan Lan	ရှမ်းလမ်း	Bargayar Road	ဗားဂရာလမ်း	San Chaung	စမ်းချောင်း	16.803776350638998	96.13150128861892
11	41	272	Shwe Man	ရွှေမန်း	Bargayar Road	ဗားဂရာလမ်း	San Chaung	စမ်းချောင်း	16.803697434586116	96.13618335686625
11	42	267	Myaynigone	မြေနီကုန်း	Bargayar Road	ဗားဂရာလမ်း	San Chaung	စမ်းချောင်း	16.8037478786025	96.13814299016668
11	43	2389	Wizaya Plaza	ဝိဇယပလာဇာ	Dhamazedi Road	ဓမ္မစေတီလမ်း	Bahan	ဗဟန်း	16.8050307383558	96.1434358686529
11	44	222	Link Lan	လင့်လမ်း	Shwe Gon Road	ရွှေဂုံလမ်း	Bahan	ဗဟန်း	16.805999079236297	96.14723340186174
11	45	206	Myauk Phat Moke	မြောက်ဘက်မုခ်	RZarNi Road	အာဇာနည်လမ်း	Dagon	ဒဂုံ	16.800997385232012	96.14897002709769
11	46	205	Ashae Phat Moke	အရှေ့ဘက်မုခ်	RZarNi Road	အာဇာနည်လမ်း	Dagon	ဒဂုံ	16.798163640361214	96.15180441644044
11	47	201	Taung Phat Moke	တောင်ဘက်မုခ်	Shwedagon Pagoda Road	ရွှေတိဂုံဘုရားလမ်း	Dagon	ဒဂုံ	16.793821314974	96.1510692397133
11	48	2398	Sauk Lote Yae	ဆောက်လုပ်ရေး	Shwedagon Pagoda Road	ရွှေတိဂုံဘုရားလမ်း	Dagon	ဒဂုံ	16.7832299480336	96.153326863423
11	49	2399	Lay Har Pyin Zay	လေဟာပြင်စျေး	Shwedagon Pagoda Road	ရွှေတိဂုံ ဘုရားလမ်း	Latha	ဒဂုံ	16.778190063414947	96.15313701331617
11	50	130	Latha	လသာ	Anawrahta Road	အနော်ရထာလမ်း	Latha	လသာ	16.777128703371353	96.15159419830891
11	51	131	Maung Khaing	မောင်ခိုင်	Mahabandoola Road	မဟာဗန္ဓုလလမ်း	Latha	လသာ	16.774456	96.15187
11	52	2400	လေဟာပြင်စျေး	Lay Har Pyin Zay	Shwedagon Pagoda Road	ရွှေတိဂုံ ဘုရားလမ်း	Latha	ဒဂုံ	16.7782052308173	96.1532986164093
11	53	193	Sauk Lote Yae	ဆောက်လုပ်ရေး	Shwedagon Pagoda Road	ရွှေတိဂုံဘုရားလမ်း	Dagon	ဒဂုံ	16.78325474487436	96.15348037797959
11	54	204	Ashae Phat Moke	အရှေ့ဘက်မုခ်	RZarNi Road	အာဇာနည်လမ်း	Dagon	ဒဂုံ	16.798261809979387	96.15193837333209
11	55	207	Myauk Phat Moke	မြောက်ဘက်မုခ်	RZarNi Road	အာဇာနည်လမ်း	Dagon	ဒဂုံ	16.801157867350614	96.14910688229429
11	56	223	Link Lan	လင့်လမ်း	Shwe Gon Road	ရွှေဂုံလမ်း	Bahan	ဗဟန်း	16.806090939455864	96.14742122246754
11	57	274	Wizaya Plaza	ဝိဇယပလာဇာ	Dhamazedi Road	ဓမ္မစေတီလမ်း	Bahan	ဗဟန်း	16.805219943235446	96.14327571864125
11	58	266	Myaynigone	မြေနီကုန်း	Bargayar Road	ဗားဂရာလမ်း	San Chaung	စမ်းချောင်း	16.803804	96.138814
11	59	273	Shwe Man	ရွှေမန်း	Bargayar Road	ဗားဂရာလမ်း	San Chaung	စမ်းချောင်း	16.803827	96.136105
11	60	261	Shan Lan	ရှမ်းလမ်း	Bargayar Road	ဗားဂရာလမ်း	San Chaung	စမ်းချောင်း	16.80383891776587	96.13184186629952
11	61	255	Koe Htat Kyee	(၉) ထပ်ကြီး	Bargayar Road	ဗားဂရာလမ်း	San Chaung	စမ်းချောင်း	16.80385946248815	96.12814109193097
11	62	257	Kyee Myin Daing Butar	ကြည့်မြင်တိုင်ဘူတာ	Upper Kyee Myin Daing Road	အထက်ကြည့်မြင်တိုင်လမ်း	Kyee Myin Daing	ကြည့်မြင်တိုင်	16.806369318492735	96.12588311894798
11	63	251	Kyee Myin Daing Nya Zay	ကြည်မြင်တိုင်ညဈေး	Upper Kyee Myin Daing Road	အထက်ကြည့်မြင်တိုင်လမ်း	Kyee Myin Daing	ကြည့်မြင်တိုင်	16.809454549304007	96.1260079778731
11	64	299	Salin Kwin	စလင်းကွင်း	Upper Kyee Myin Daing Road	အထက်ကြည့်မြင်တိုင်လမ်း	Kyee Myin Daing	ကြည့်မြင်တိုင်	16.81202472257673	96.12604951020332
11	65	280	Nat Sin Lan	နတ်စင်လမ်း	Upper Kyee Myin Daing Road	အထက်ကြည့်မြင်တိုင်လမ်း	Kyee Myin Daing	ကြည့်မြင်တိုင်	16.81454172510049	96.12605868838727
11	66	283	Hantharwaddy	ဟံသာဝတီ	Upper Kyee Myin Daing Road	အထက်ကြည့်မြင်တိုင်လမ်း	Kyee Myin Daing	ကြည့်မြင်တိုင်	16.816171299925603	96.12607955932619
11	67	311	Ye Win	ရဲဝင်း	Baho Road	ဗဟိုလမ်း	Kamayut	ကမာရွတ်	16.81772275286729	96.12663205247374
11	68	298	Pyi Yeik Mon	ပြည်ရိပ်မွန်	Baho Road	ဗဟိုလမ်း	Kamayut	ကမာရွတ်	16.822191003751193	96.12590789794923
11	69	294	Khaing Shwe Wah	ခိုင်ရွှေဝါ	Baho Road	ဗဟိုလမ်း	Kamayut	ကမာရွတ်	16.826047	96.125175
11	70	281	B.R.B	ဘီအာဘီ	Baho Road	ဗဟိုလမ်း	Kamayut	ကမာရွတ်	16.828871	96.124271
11	71	1178	Site Kar Gate	ဆိုက်ကားဂိတ်	Baho Road	ဗဟိုလမ်း	Kamayut	ကမာရွတ်	16.831448	96.123565
11	72	1185	Ywarma Kwae	ရွာမကွေ့	Baho Road	ဗဟိုလမ်း	Hlaing	လှိုင်	16.834442	96.122012
11	73	1168	Butar Yon Lan	ဘူတာရုံလမ်း	Baho Road	ဗဟိုလမ်း	Hlaing	လှိုင်	16.837091	96.121267
11	74	1172	Kamayut	ကမာရွတ်	Baho Road	ဗဟိုလမ်း	Hlaing	လှိုင်	16.840033	96.120604
11	75	1204	Than Lan	သံလမ်း	Baho Road	ဗဟိုလမ်း	Hlaing	လှိုင်	16.845229	96.119167
11	76	1205	Thiri Myaing	သီရိမြိုင်	Baho Road	ဗဟိုလမ်း	Hlaing	လှိုင်	16.84831	96.11833
11	77	1198	Oakyin	အုတ်ကျင်း	Baho Road	ဗဟိုလမ်း	Hlaing	လှိုင်	16.855292	96.116527
11	78	1202	Thamine Lan Son	သမိုင်းလမ်းဆုံ	Baho Road	ဗဟိုလမ်း	Mayangone	မရမ်းကုန်း	16.860991	96.114926
11	79	1316	Myo Thit	မြို့သစ်	Baho Road	ဗဟိုလမ်း	Insein	အင်းစိန်	16.876700990794117	96.112027047202
11	80	1346	Insein Pan Chan	အင်းစိန်ပန်းခြံ	Min Gyi Road	မင်းကြီးလမ်း	Insein	အင်းစိန်	16.8876457653682	96.1077884444967
11	81	2196	Insein Pan Chan	အင်းစိန်ပန်းခြံ	Lan Thit Road	လမ်းသစ်လမ်း	Insein	အင်းစိန်	16.888620447310966	96.10765274148436
11	82	1351	Oakyin Wa	အုတ်ကျင်းဝ	Lan Thit Road	လမ်းသစ်လမ်း	Insein	အင်းစိန်	16.89028908469433	96.11137598287316
11	83	1353	Workshop	ဝပ်ရှော့	Lan Thit Road	လမ်းသစ်လမ်း	Insein	အင်းစိန်	16.89100285276214	96.11467744689438
11	84	1339	Ar Lain Ngar Sint	အာလိန်ငါးဆင့်	Lan Thit Road	လမ်းသစ်လမ်း	Insein	အင်းစိန်	16.891396568944188	96.11658034846188
11	85	1296	Saw Bwar Gyi Kone Lan Sone	စော်ဘွားကြီးကုန်းလမ်းဆုံ	Pyay Road	ပြည်လမ်း	Insein	အင်းစိန်	16.891840811985514	96.12003356684001
11	86	45	Htan Pin Kone	ထန်းပင်ကုန်း	No. 1 Main Road	အမှတ်(၁)လမ်းမ	Mingalardon	မင်္ဂလာဒုံ	16.90029241877987	96.1243827478029
11	87	1371	Kalar Paya	ကုလားဘုရား	No. 1 Main Road	အမှတ်(၁)လမ်းမ	Mingalardon	မင်္ဂလာဒုံ	16.90566	96.129059
11	88	1373	Pan Chan Kone	ပန်းခြံကုန်း	No. 1 Main Road	အမှတ်(၁)လမ်းမ	Mingalardon	မင်္ဂလာဒုံ	16.91071	96.131977
11	89	1394	B.O.C	ဘီအိုစီ	No. 1 Main Road	အမှတ်(၁)လမ်းမ	Mingalardon	မင်္ဂလာဒုံ	16.915565	96.134779
11	90	1399	Say Kyaung	ဆေးကျောင်း	No. 1 Main Road	အမှတ်(၁)လမ်းမ	Mingalardon	မင်္ဂလာဒုံ	16.92003	96.134199
11	91	1061	Sar Taik	စာတိုက်	No. 1 Main Road	အမှတ်(၁)လမ်းမ	Mingalardon	မင်္ဂလာဒုံ	16.923592	96.133438
11	92	1397	Khayae Pin Lan Khawe	ခရေပင်လမ်းခွဲ	No. 1 Main Road	အမှတ်(၁)လမ်းမ	Mingalardon	မင်္ဂလာဒုံ	16.927303171944107	96.13170620519669
11	93	1403	Yar Thet Pan	ရာသက်ပန်	Khayae Pin Road	ခရေပင်လမ်း	Mingalardon	မင်္ဂလာဒုံ	16.930075389545287	96.13715025834608
11	94	1401	Thone Yarthi	သုံးရာသီ	Khayae Pin Road	ခရေပင်လမ်း	Mingalardon	မင်္ဂလာဒုံ	16.931584531388598	96.14136377116667
11	95	2397	Khayae Pin Yate Mon	ခရေပင်ရိပ်မွန်	Khayae Pin Road	ခရေပင်လမ်း	Mingaladon	undefined	16.934276875338153	96.14897925406696
11	96	1417	Ah-Hmat-Thone Lan Sone	အမှတ် (၃) လမ်းဆုံ	No. 3 Main Road	အမှတ်(၃)လမ်းမ	Mingalardon	မင်္ဂလာဒုံ	16.935217538537646	96.15312103891485
11	97	814	Tat Htate	တပ်ထိပ်	ႊThudhamar Road	သုဓမ္မာလမ်း	North Okkalapa	မြောက်ဥက္ကလာပ	16.929566031458144	96.15465174894783
11	98	812	Aung Mingalar A Way Pyay	အောင်မင်္ဂလာအဝေးပြေး	Thudhamar Road	သုဓမ္မာလမ်း	North Okkalapa	မြောက်ဥက္ကလာပ	16.926507148276386	96.15606020204724