svc_name	sequence	stop_id	name_en	name_mm	road_en	road_mm	township_en	township_mm	lat	lng
87	1	1031	Dagon Takke Tho	ဒဂုံတက္ကသိုလ်	Dagon University	ဒဂုံတက္ကသိုလ်	North Dagon	မြောက်ဒဂုံ	16.916878098620895	96.2128589116037
87	2	1036	Yone Shae	ရုံးရှေ့	Dagon University	ဒဂုံတက္ကသိုလ်	North Dagon	မြောက်ဒဂုံ	16.914898	96.210383
87	3	5	Sal Mile	(၁၀) မိုင်	Dagon University	ဒဂုံတက္ကသိုလ်	North Dagon	မြောက်ဒဂုံ	16.91305	96.211413
87	4	1030	Awine	အဝိုင်း	Dagon University	ဒဂုံတက္ကသိုလ်	North Dagon	မြောက်ဒဂုံ	16.910484	96.212894
87	5	1035	Moke Wa	မုခ်ဝ	Bo Hmu Ba Htoo Road	ဗိုလ်မှူးဗထူးလမ်း	North Dagon	မြောက်ဒဂုံ	16.904572413792256	96.20403635082766
87	6	4	Gate Haung	ဂိတ်ဟောင်း	Bo Hmu Ba Htoo Road	ဗိုလ်မှူးဗထူးလမ်း	North Dagon	မြောက်ဒဂုံ	16.902497980384474	96.20003734482454
87	7	1028	Zay Lay	ဈေးလေး	Bo Hmu Ba Htoo Road	ဗိုလ်မှူးဗထူးလမ်း	North Dagon	မြောက်ဒဂုံ	16.90146845418412	96.19797575287522
87	8	1026	Sein Pan	စိန်ပန်း	Bo Hmu Ba Htoo Road	ဗိုလ်မှူးဗထူးလမ်း	North Dagon	မြောက်ဒဂုံ	16.900651750342817	96.19650150183588
87	9	1022	Lay-sae-chauk Lan Sone	(၄၆) လမ်းဆုံ	Bo Hmu Ba Htoo Road	ဗိုလ်မှူးဗထူးလမ်း	North Dagon	မြောက်ဒဂုံ	16.898677323017722	96.19268000358717
87	10	936	Lay-sae-nga Hmat Taing	(၄၅) မှတ်တိုင်	Pyi Htaung Su Main Road	ပြည်ထောင်စုလမ်းမကြီး	North Dagon	မြောက်ဒဂုံ	16.895240592043372	96.19431724073367
87	11	926	Khun/ Shit Lan Sone	(၇/၈) လမ်းဆုံ	Pyi Htaung Su Main Road	ပြည်ထောင်စုလမ်းမကြီး	North Dagon	မြောက်ဒဂုံ	16.890901135262965	96.1966553097591
87	12	880	Yone Shae	ရုံးရှေ့	Pyi Htaung Su Main Road	ပြည်ထောင်စုလမ်းမကြီး	North Dagon	မြောက်ဒဂုံ	16.887499	96.198531
87	13	928	Kone Padaythar	ကုန်ပဒေသာ	Pyi Htaung Su Main Road	ပြည်ထောင်စုလမ်းမကြီး	North Dagon	မြောက်ဒဂုံ	16.88450962539422	96.20014968328181
87	14	1004	Swan In	စွမ်းအင်	Pyi Htaung Su Main Road	ပြည်ထောင်စုလမ်းမကြီး	North Dagon	မြောက်ဒဂုံ	16.880652	96.202251
87	15	2346	Ma Wa Ta	မဝတ	Pyi Htaung Su Main Road	ပြည်ထောင်စုလမ်းမကြီး	North Dagon	မြောက်ဒဂုံ	16.87739888879641	96.20413976255806
87	16	172	Mandalay Lan	မန္တလေးလမ်း	Pin Lon Road	ပင်လုံလမ်း	North Dagon	မြောက်ဒဂုံ	16.8744	96.198868
87	17	1003	Sittaung Lan	စစ်တောင်းလမ်း	Pin Lon Road	ပင်လုံလမ်း	North Dagon	မြောက်ဒဂုံ	16.872970930494294	96.19630813132972
87	18	997	Kyaung Lan	ကျောင်းလမ်း	Pin Lon Road	ပင်လုံလမ်း	North Dagon	မြောက်ဒဂုံ	16.871300956933585	96.19305180385712
87	19	1001	Settwe Yae	ဆက်သွယ်ရေး	Pin Lon Road	ပင်လုံလမ်း	North Dagon	မြောက်ဒဂုံ	16.86985558238827	96.19017253629865
87	20	993	Thone-sae-ngar Kwae	(၃၅) ကွေ့	Pin Lon Road	ပင်လုံလမ်း	North Dagon	မြောက်ဒဂုံ	16.868299944520913	96.18713363539428
87	21	991	Thin Win	သင်းဝင်	Pin Lon Road	ပင်လုံလမ်း	North Dagon	မြောက်ဒဂုံ	16.866909573314597	96.1845249356702
87	22	978	Nar Yee Sin	နာရီစင်	Pin Lon Road	ပင်လုံလမ်း	North Dagon	မြောက်ဒဂုံ	16.866120273313303	96.18284151423723
87	23	1074	Bay Li	ဘေလီ	Parami Road	ပါရမီလမ်း	South Okkalapa	တောင်ဥက္ကလာပ	16.86095	96.177093
87	24	2352	Pinya	ပင်းယ	Parami Road	ပါရမီလမ်း	South Okkalapa	တောင်ဥက္ကလာပ	16.85955	96.176045
87	25	1247	Kaytu Marlar Kwae	ကေတုမာလာကွေ့	Parami Road	ပါရမီလမ်း	South Okkalapa	တောင်ဥက္ကလာပ	16.856264313885067	96.17213245946915
87	26	304	Ta Kaung	တကောင်း	Thu Mingalar Road	သုမင်္ဂလာလမ်း	South Okkalapa	တောင်ဥက္ကလာပ	16.85492188488732	96.17310744244607
87	27	16	Nandawun Zay	နန္ဒဝန်ဈေး	Thu Mingalar Road	သုမင်္ဂလာလမ်း	South Okkalapa	တောင်ဥက္ကလာပ	16.851780308296124	96.17582898354159
87	28	1076	Inwa	အင်းဝ	Thu Mingalar Road	သုမင်္ဂလာလမ်း	South Okkalapa	တောင်ဥက္ကလာပ	16.84950257748793	96.17750647477808
87	29	1067	Taung Okkalar Sar Taik	တောင်ဥက္ကလာစာတိုက်	Thu Mingalar Road	သုမင်္ဂလာလမ်း	South Okkalapa	တောင်ဥက္ကလာပ	16.846687	96.179389
87	30	1058	Ponnami	ပုဏ္ဏမီ	Thitsar Road	သစ္စာလမ်း	South Okkalapa	တောင်ဥက္ကလာပ	16.843469000658473	96.1765538295731
87	31	1039	Baho Zay	ဗဟိုဈေး	Thitsar Road	သစ္စာလမ်း	Yankin	ရန်ကင်း	16.840565132827066	96.17272029625386
87	32	2174	Than Lan	သံလမ်း	Kanbe Road	ကန်ဘဲ့လမ်း	Yankin	ရန်ကင်း	16.839088	96.1696
87	33	1047	Moe Kaung	မိုးကောင်း	Kanbe Road	ကန်ဘဲ့လမ်း	Yankin	ရန်ကင်း	16.837754509616378	96.16616418097692
87	34	1052	Yankin Sar Taik	ရန်ကင်းစာတိုက်	Yankin Road	ရန်ကင်းလမ်း	Yankin	ရန်ကင်း	16.834796	96.1626
87	35	6	Sae-hnat-lone-Tan	(၁၂) လုံးတန်း	Yankin Road	ရန်ကင်းလမ်း	Yankin	ရန်ကင်း	16.83090737715405	96.16340025560933
87	36	331	Yankin Zay	ရန်ကင်းဈေး	Yanshin Street	ရန်ရှင်းလမ်းသွယ်	Yankin	ရန်ကင်း	16.82892	96.159207
87	37	326	Set Hmu Tit	စက်မှု (၁)	No. 1 Industrial Road	အမှတ်(၁)စက်မှုဇုန်လမ်း	Yankin	ရန်ကင်း	16.827675	96.15721
87	38	2424	Set Hmu Tit/Myanmar Plaza	စက်မှု (၁)/မြန်မာပလာဇာ	Kabar Aye Pagoda Road	ကမ္ဘာအေးဘုရားလမ်း	Bahan	ဗဟန်း	16.8270325276271	96.1542052030563
87	39	324	Kokkaing/ Kyaung Shae	ကုက္ကိုင်း/ ကျောင်းရှေ့	Kabar Aye Pagoda Road	ကမ္ဘာအေးဘုရားလမ်း	Bahan	ဗဟန်း	16.820614	96.155217
87	40	322	Har Mit Tic	ဟာမစ်တစ်	Kabar Aye Pagoda Road	ကမ္ဘာအေးဘုရားလမ်း	Bahan	ဗဟန်း	16.814847	96.155824
87	41	230	Shwe Gon Daing	ရွှေဂုံတိုင်	Kabar Aye Pagoda Road	ကမ္ဘာအေးဘုရားလမ်း	Bahan	ဗဟန်း	16.80519530942897	96.1557773128152
87	42	209	Bahan Thone Lan	ဗဟန်းသုံးလမ်း	Bahan Road	ဗဟန်းလမ်း	Bahan	ဗဟန်း	16.798049388513782	96.15706854499878
87	43	202	Kyauk Taing	ကျောက်တိုင်	ZOOlogical Garden Road	တိရိစ္ဆာန်ဥယျာဉ်လမ်း	Dagon	ဒဂုံ	16.7887528427616	96.15719425259158
87	44	194	Youk Lan	ယောက်လမ်း	Alanpya Pagoda Road	အလံပြဘုရားလမ်း	Dagon	ဒဂုံ	16.7826821164587	96.15895088994877
87	45	144	Yoke Shin Yon	ရုပ်ရှင်ရုံ	Sule Pagoda Road	ဆူးလေးဘုရားလမ်း	Pabedan	ပန်းဘဲတန်း	16.777455	96.158736
87	46	141	Sule Myodaw Khan Ma	ဆူးလေမြို့တော်ခန်းမ	Sule Pagoda Road	ဆူးလေးဘုရားလမ်း	Kyauktada	ကျောက်တံတား	16.775683412852157	96.15891139023006
87	47	195	Youk Lan	ယောက်လမ်း	Gyo Phyu Road	ဂျိုးဖြူလမ်း	Mingalar Taung Nyunt	မင်္ဂလာတောင်ညွန့်	16.785509	96.159488
87	48	203	Kyauk Taing	ကျောက်တိုင်	ZOOlogical Garden Road	တိရိစ္ဆာန်ဥယျာဉ်လမ်း	Dagon	ဒဂုံ	16.789040545760724	96.15748437121512
87	49	208	Bahan Thone Lan	ဗဟန်းသုံးလမ်း	Bahan Road	ဗဟန်းလမ်း	Bahan	ဗဟန်း	16.79706005725926	96.15702768322082
87	50	210	Yae Khae Saing	ရေခဲဆိုင်	Koe Min Ko Chin Road	ကိုယ်မင်းကိုယ်ချင်းလမ်း	Bahan	ဗဟန်း	16.801598383916467	96.15790716849006
87	51	2425	Shwe Gon Daing	ရွှေဂုံတိုင်	Kabar Aye Pagoda Road	ကမ္ဘာအေးဘုရားလမ်း	Bahan	ဗဟန်း	16.8052802428109	96.1559515935369
87	52	321	Har Mit Tic	ဟာမစ်တစ်	Kabar Aye Pagoda Road	ကမ္ဘာအေးဘုရားလမ်း	Bahan	ဗဟန်း	16.810533	96.156242
87	53	323	Kokkaing/ Kyaung Shae	ကုက္ကိုင်း/ ကျောင်းရှေ့	Kabar Aye Pagoda Road	ကမ္ဘာအေးဘုရားလမ်း	Bahan	ဗဟန်း	16.820902	96.155249
87	54	325	Set Hmu Tit/Myanmar Plaza	စက်မှု (၁)/မြန်မာပလာဇာ	Kabar Aye Pagoda Road	ကမ္ဘာအေးဘုရားလမ်း	Bahan	ဗဟန်း	16.826940744308455	96.15445330739023
87	55	327	Set Hmu Tit	စက်မှု (၁)	No. 1 Industrial Road	အမှတ်(၁)စက်မှုဇုန်လမ်း	Yankin	ရန်ကင်း	16.82753579739672	96.15732398349795
87	56	330	Yankin Zay	ရန်ကင်းဈေး	Yanshin Street	ရန်ရှင်းလမ်းသွယ်	Yankin	ရန်ကင်း	16.828822052765155	96.15921364165843
87	57	7	Sae-hnat-lone-Tan	(၁၂) လုံးတန်း	Yankin Road	ရန်ကင်းလမ်း	Yankin	ရန်ကင်း	16.830835378709462	96.1635034158826
87	58	1051	Yankin Sar Taik	ရန်ကင်းစာတိုက်	Yankin Road	ရန်ကင်းလမ်း	Yankin	ရန်ကင်း	16.834688	96.162728
87	59	2175	Moe Kaung	မိုးကောင်း	Kanbe Road	ကန်ဘဲ့လမ်း	Yankin	ရန်ကင်း	16.83766012400343	96.16633756784725
87	60	1048	Than Lan	သံလမ်း	Kanbe Road	ကန်ဘဲ့လမ်း	Yankin	ရန်ကင်း	16.838986	96.169914
87	61	1040	Baho Zay	ဗဟိုဈေး	Thitsar Road	သစ္စာလမ်း	Yankin	ရန်ကင်း	16.840362	96.172768
87	62	1057	Ponnami	ပုဏ္ဏမီ	Thitsar Road	သစ္စာလမ်း	South Okkalapa	တောင်ဥက္ကလာပ	16.843634554457434	96.17703298466951
87	63	1065	Taung Okkalar Sar Taik	တောင်ဥက္ကလာစာတိုက်	Thitsar Road	သစ္စာလမ်း	South Okkalapa	တောင်ဥက္ကလာပ	16.84592753129176	96.1797006474808
87	64	1068	Taung Okkalar Sar Taik	တောင်ဥက္ကလာစာတိုက်	Thu Mingalar Road	သုမင်္ဂလာလမ်း	South Okkalapa	တောင်ဥက္ကလာပ	16.846759	96.179625
87	65	1077	Inwa	အင်းဝ	Thu Mingalar Road	သုမင်္ဂလာလမ်း	South Okkalapa	တောင်ဥက္ကလာပ	16.849540622118948	96.17771046934651
87	66	17	Nandawun Zay	နန္ဒဝန်ဈေး	Thu Mingalar Road	သုမင်္ဂလာလမ်း	South Okkalapa	တောင်ဥက္ကလာပ	16.852036008309625	96.17587229702623
87	67	303	Ta Kaung	တကောင်း	Thu Mingalar Road	သုမင်္ဂလာလမ်း	South Okkalapa	တောင်ဥက္ကလာပ	16.854805688595036	96.17346153594553
87	68	2125	Kaytu Marlar Kwae	ကေတုမာလာကွေ့	Parami Road	ပါရမီလမ်း	South Okkalapa	တောင်ဥက္ကလာပ	16.856129688374033	96.1720715649426
87	69	1081	Pinya	ပင်းယ	Parami Road	ပါရမီလမ်း	South Okkalapa	တောင်ဥက္ကလာပ	16.85943	96.176149
87	70	1073	Bay Li	ဘေလီ	Parami Road	ပါရမီလမ်း	South Okkalapa	တောင်ဥက္ကလာပ	16.860898	96.177126
87	71	977	Nar Yee Sin	နာရီစင်	Pin Lon Road	ပင်လုံလမ်း	North Dagon	မြောက်ဒဂုံ	16.866016115948014	96.18298748508097
87	72	990	Thin Win	သင်းဝင်	Pin Lon Road	ပင်လုံလမ်း	North Dagon	မြောက်ဒဂုံ	16.866484	96.184355
87	73	992	Thone-sae-ngar Kwae	(၃၅) ကွေ့	Pin Lon Road	ပင်လုံလမ်း	North Dagon	မြောက်ဒဂုံ	16.867983	96.186951
87	74	1000	Settwe Yae	ဆက်သွယ်ရေး	Pin Lon Road	ပင်လုံလမ်း	North Dagon	မြောက်ဒဂုံ	16.869461	96.19002
87	75	996	Kyaung Lan	ကျောင်းလမ်း	Pin Lon Road	ပင်လုံလမ်း	North Dagon	မြောက်ဒဂုံ	16.871449989624473	96.19379330892117
87	76	1002	Sittaung Lan	စစ်တောင်းလမ်း	Pin Lon Road	ပင်လုံလမ်း	North Dagon	မြောက်ဒဂုံ	16.872829	96.196371
87	77	173	Mandalay Lan	မန္တလေးလမ်း	Pin Lon Road	ပင်လုံလမ်း	North Dagon	မြောက်ဒဂုံ	16.874343	96.199035
87	78	1009	Ma Wa Ta	မဝတ	Pin Lon Road	ပင်လုံလမ်း	North Dagon	မြောက်ဒဂုံ	16.876962612612097	96.20422358158977
87	79	1008	Ma Wa Ta	မဝတ	Pyi Htaung Su Main Road	ပြည်ထောင်စုလမ်းမကြီး	North Dagon	မြောက်ဒဂုံ	16.87735960653568	96.2043057032861
87	80	1005	Swan In	စွမ်းအင်	Pyi Htaung Su Main Road	ပြည်ထောင်စုလမ်းမကြီး	North Dagon	မြောက်ဒဂုံ	16.880857	96.202573
87	81	929	Kone Padaythar	ကုန်ပဒေသာ	Pyi Htaung Su Main Road	ပြည်ထောင်စုလမ်းမကြီး	North Dagon	မြောက်ဒဂုံ	16.884606955074492	96.20041140820834
87	82	881	Yone Shae	ရုံးရှေ့	Pyi Htaung Su Main Road	ပြည်ထောင်စုလမ်းမကြီး	North Dagon	မြောက်ဒဂုံ	16.887581	96.198817
87	83	927	Khun/ Shit Lan Sone	(၇/၈) လမ်းဆုံ	Pyi Htaung Su Main Road	ပြည်ထောင်စုလမ်းမကြီး	North Dagon	မြောက်ဒဂုံ	16.892417	96.196178
87	84	935	Lay-sae-nga Hmat Taing	(၄၅) မှတ်တိုင်	Pyi Htaung Su Main Road	ပြည်ထောင်စုလမ်းမကြီး	North Dagon	မြောက်ဒဂုံ	16.894714170604107	96.19477124651895
87	85	1019	Lay-sae-chauk Hmat Taing	(၄၆) မှတ်တိုင်	Pyi Htaung Su Main Road	ပြည်ထောင်စုလမ်းမကြီး	North Dagon	မြောက်ဒဂုံ	16.898430708623312	96.19273792253809
87	86	1025	Sein Pan	စိန်ပန်း	Bo Hmu Ba Htoo Road	ဗိုလ်မှူးဗထူးလမ်း	North Dagon	မြောက်ဒဂုံ	16.900489708373588	96.1964267352596
87	87	1027	Zay Lay	ဈေးလေး	Bo Hmu Ba Htoo Road	ဗိုလ်မှူးဗထူးလမ်း	North Dagon	မြောက်ဒဂုံ	16.901195417976574	96.19785446673633
87	88	3	Gate Haung	ဂိတ်ဟောင်း	Bo Hmu Ba Htoo Road	ဗိုလ်မှူးဗထူးလမ်း	North Dagon	မြောက်ဒဂုံ	16.902339969961016	96.20012610917912
87	89	1034	Moke Wa	မုခ်ဝ	Bo Hmu Ba Htoo Road	ဗိုလ်မှူးဗထူးလမ်း	North Dagon	မြောက်ဒဂုံ	16.904480808468755	96.20416122023018
87	90	1029	Awine	အဝိုင်း	Dagon University	ဒဂုံတက္ကသိုလ်	North Dagon	မြောက်ဒဂုံ	16.910341	96.213602
87	91	2122	Sal Mile	(၁၀) မိုင်	Dagon University	ဒဂုံတက္ကသိုလ်	North Dagon	မြောက်ဒဂုံ	16.913297	96.211864
87	92	2123	Yone Shae	ရုံးရှေ့	Dagon University	ဒဂုံတက္ကသိုလ်	North Dagon	မြောက်ဒဂုံ	16.915206	96.210791
