svc_name	sequence	stop_id	name_en	name_mm	road_en	road_mm	township_en	township_mm	lat	lng
36-AungMingalar	1	812	Aung Mingalar A Way Pyay	အောင်မင်္ဂလာအဝေးပြေး	Thudhamar Road	သုဓမ္မာလမ်း	North Okkalapa	မြောက်ဥက္ကလာပ	16.926507148276386	96.15606020204724
36-AungMingalar	2	809	Dhamar Yon	ဓမ္မာရုံ	Thudhamar Road	သုဓမ္မာလမ်း	North Okkalapa	မြောက်ဥက္ကလာပ	16.924125873138063	96.15775667829439
36-AungMingalar	3	819	Chauk Kwae	(၆) ကွေ့	Thudhamar Road	သုဓမ္မာလမ်း	North Okkalapa	မြောက်ဥက္ကလာပ	16.918460340415336	96.16298958426344
36-AungMingalar	4	2401	Ayar	ဧရာ	Thudhamar Road	သုဓမ္မာလမ်း	North Okkalapa	မြောက်ဥက္ကလာပ	16.9173295590306	96.163487280719
36-AungMingalar	5	850	Kan Tharyar	ကန်သာယာ	Thudhamar Road	သုဓမ္မာလမ်း	North Okkalapa	မြောက်ဥက္ကလာပ	16.913219783941475	96.16519050439821
36-AungMingalar	6	858	Ou Zanar	ဥဇ္ဇနာ	Thudhamar Road	သုဓမ္မာလမ်း	North Okkalapa	မြောက်ဥက္ကလာပ	16.910967	96.165856
36-AungMingalar	7	843	Eindar	က္ကန္ဒာ	Thudhamar Road	သုဓမ္မာလမ်း	North Okkalapa	မြောက်ဥက္ကလာပ	16.90722	96.166135
36-AungMingalar	8	864	Thu Nandar	သုနန္ဒာ	Thudhamar Road	သုဓမ္မာလမ်း	North Okkalapa	မြောက်ဥက္ကလာပ	16.903951	96.165427
36-AungMingalar	9	842	Eindar	က္ကန္ဒာ	Thudhamar Road	သုဓမ္မာလမ်း	North Okkalapa	မြောက်ဥက္ကလာပ	16.906969	96.16621
36-AungMingalar	10	857	Ou Zanar	ဥဇ္ဇနာ	Thudhamar Road	သုဓမ္မာလမ်း	North Okkalapa	မြောက်ဥက္ကလာပ	16.910726	96.166001
36-AungMingalar	11	848	Kan Tharyar	ကန်သာယာ	Thudhamar Road	သုဓမ္မာလမ်း	North Okkalapa	မြောက်ဥက္ကလာပ	16.91255523875324	96.1656310572289
36-AungMingalar	12	863	Thu Nandar	သုနန္ဒာ	Thudhamar Road	သုဓမ္မာလမ်း	North Okkalapa	မြောက်ဥက္ကလာပ	16.90436155507222	96.16570844314994
36-AungMingalar	13	866	Waziyar	ဝဇီယာ	Thudhamar Road	သုဓမ္မာလမ်း	North Okkalapa	မြောက်ဥက္ကလာပ	16.901323	96.164128
36-AungMingalar	14	862	Thandar	သန္တာ	Thudhamar Road	သုဓမ္မာလမ်း	North Okkalapa	မြောက်ဥက္ကလာပ	16.899026	96.162241
36-AungMingalar	15	883	Ga-gyi Zay	(ဃ) ဈေး	Thudhamar Road	သုဓမ္မာလမ်း	North Okkalapa	မြောက်ဥက္ကလာပ	16.89677	96.159541
36-AungMingalar	16	888	Myauk Okkalar Awine	မြောက်ဥက္ကလာအဝိုင်း	Thudhamar Road	သုဓမ္မာလမ်း	North Okkalapa	မြောက်ဥက္ကလာပ	16.892729094424542	96.15465329959991
36-AungMingalar	17	886	Kyauk Yae Twin	ကျောက်ရေတွင်း	Thudhamar Road	သုဓမ္မာလမ်း	North Okkalapa	မြောက်ဥက္ကလာပ	16.889501887498064	96.15369533188642
36-AungMingalar	18	887	Myauk Okkalar Awine	မြောက်ဥက္ကလာအဝိုင်း	Thudhamar Road	သုဓမ္မာလမ်း	North Okkalapa	မြောက်ဥက္ကလာပ	16.892739761327437	96.15506128873677
36-AungMingalar	19	885	Kyauk Yae Twin	ကျောက်ရေတွင်း	Thudhamar Road	သုဓမ္မာလမ်း	North Okkalapa	မြောက်ဥက္ကလာပ	16.88791116167424	96.15428918972613
36-AungMingalar	20	890	Phone Gyi Lan	ဘုန်းကြီးလမ်း	Thudhamar Road	သုဓမ္မာလမ်း	North Okkalapa	မြောက်ဥက္ကလာပ	16.882105361836498	96.15514125209302
36-AungMingalar	21	1275	Hnit Zay	(၂) ဈေး	Thudhamar Road	သုဓမ္မာလမ်း	North Okkalapa	မြောက်ဥက္ကလာပ	16.878934279385433	96.15580279380085
36-AungMingalar	22	1821	Ngar Lan	(၅) လမ်း	Thudhamar Road	သုဓမ္မာလမ်း	North Okkalapa	မြောက်ဥက္ကလာပ	16.874205	96.156698
36-AungMingalar	23	1280	Lan Wa/ Nawaday	လမ်းဝ/နဝဒေး	Thudhamar Road	သုဓမ္မာလမ်း	North Okkalapa	မြောက်ဥက္ကလာပ	16.8672229261052	96.1545687261969
36-AungMingalar	24	1818	Sar Taik	စာတိုက်	Kabar Aye Pagoda Road	ကမ္ဘာအေးဘုရားလမ်း	Mayangone	မရမ်းကုန်း	16.861586	96.155325
36-AungMingalar	25	1239	Kabar Aye Paya/ Paya Lan	ကမ္ဘာအေးဘုရားလမ်း	Kabar Aye Pagoda Road	ကမ္ဘာအေးဘုရားလမ်း	Mayangone	မရမ်းကုန်း	16.85825079611413	96.15602290257813
36-AungMingalar	26	1236	Chaw Twin Kone	ချော်တွင်းကုန်း	Kabar Aye Pagoda Road	ကမ္ဘာအေးဘုရားလမ်း	Mayangone	မရမ်းကုန်း	16.848967	96.157233
36-AungMingalar	27	36	Tayar-Chauk	-၁၀၆	Kabar Aye Pagoda Road	ကမ္ဘာအေးဘုရားလမ်း	Mayangone	မရမ်းကုန်း	16.842775	96.156468
36-AungMingalar	28	1242	Yeik Thar	ရိပ်သာ	Kabar Aye Pagoda Road	ကမ္ဘာအေးဘုရားလမ်း	Mayangone	မရမ်းကုန်း	16.83789230363614	96.15568609020558
36-AungMingalar	29	1246	Lan Ni	လမ်းနီ	Kabar Aye Pagoda Road	ကမ္ဘာအေးဘုရားလမ်း	Mayangone	မရမ်းကုန်း	16.833849962299986	96.15510751493277
36-AungMingalar	30	2424	Set Hmu Tit/Myanmar Plaza	စက်မှု (၁)/မြန်မာပလာဇာ	Kabar Aye Pagoda Road	ကမ္ဘာအေးဘုရားလမ်း	Bahan	ဗဟန်း	16.8270325276271	96.1542052030563
36-AungMingalar	31	324	Kokkaing/ Kyaung Shae	ကုက္ကိုင်း/ ကျောင်းရှေ့	Kabar Aye Pagoda Road	ကမ္ဘာအေးဘုရားလမ်း	Bahan	ဗဟန်း	16.820614	96.155217
36-AungMingalar	32	322	Har Mit Tic	ဟာမစ်တစ်	Kabar Aye Pagoda Road	ကမ္ဘာအေးဘုရားလမ်း	Bahan	ဗဟန်း	16.814847	96.155824
36-AungMingalar	33	230	Shwe Gon Daing	ရွှေဂုံတိုင်	Kabar Aye Pagoda Road	ကမ္ဘာအေးဘုရားလမ်း	Bahan	ဗဟန်း	16.80519530942897	96.1557773128152
36-AungMingalar	34	209	Bahan Thone Lan	ဗဟန်းသုံးလမ်း	Bahan Road	ဗဟန်းလမ်း	Bahan	ဗဟန်း	16.798049388513782	96.15706854499878
36-AungMingalar	35	202	Kyauk Taing	ကျောက်တိုင်	ZOOlogical Garden Road	တိရိစ္ဆာန်ဥယျာဉ်လမ်း	Dagon	ဒဂုံ	16.7887528427616	96.15719425259158
36-AungMingalar	36	194	Youk Lan	ယောက်လမ်း	Alanpya Pagoda Road	အလံပြဘုရားလမ်း	Dagon	ဒဂုံ	16.78267426523096	96.15894223563376
36-AungMingalar	37	144	Yoke Shin Yon	ရုပ်ရှင်ရုံ	Sule Pagoda Road	ဆူးလေးဘုရားလမ်း	Pabedan	ပန်းဘဲတန်း	16.777455	96.158736
36-AungMingalar	38	141	Sule Myodaw Khan Ma	ဆူးလေမြို့တော်ခန်းမ	Sule Pagoda Road	ဆူးလေးဘုရားလမ်း	Kyauktada	ကျောက်တံတား	16.775683412852157	96.15891139023006
36-AungMingalar	39	195	Youk Lan	ယောက်လမ်း	Gyo Phyu Road	ဂျိုးဖြူလမ်း	Mingalar Taung Nyunt	မင်္ဂလာတောင်ညွန့်	16.785509	96.159488
36-AungMingalar	40	203	Kyauk Taing	ကျောက်တိုင်	ZOOlogical Garden Road	တိရိစ္ဆာန်ဥယျာဉ်လမ်း	Dagon	ဒဂုံ	16.789040545760724	96.15748437121512
36-AungMingalar	41	208	Bahan Thone Lan	ဗဟန်းသုံးလမ်း	Bahan Road	ဗဟန်းလမ်း	Bahan	ဗဟန်း	16.79706005725926	96.15702768322082
36-AungMingalar	42	210	Yae Khae Saing	ရေခဲဆိုင်	Koe Min Ko Chin Road	ကိုယ်မင်းကိုယ်ချင်းလမ်း	Bahan	ဗဟန်း	16.801598383916467	96.15790716849006
36-AungMingalar	43	2425	Shwe Gon Daing	ရွှေဂုံတိုင်	Kabar Aye Pagoda Road	ကမ္ဘာအေးဘုရားလမ်း	Bahan	ဗဟန်း	16.8052802428109	96.1559515935369
36-AungMingalar	44	321	Har Mit Tic	ဟာမစ်တစ်	Kabar Aye Pagoda Road	ကမ္ဘာအေးဘုရားလမ်း	Bahan	ဗဟန်း	16.810533	96.156242
36-AungMingalar	45	323	Kokkaing/ Kyaung Shae	ကုက္ကိုင်း/ ကျောင်းရှေ့	Kabar Aye Pagoda Road	ကမ္ဘာအေးဘုရားလမ်း	Bahan	ဗဟန်း	16.820902	96.155249
36-AungMingalar	46	325	Set Hmu Tit/Myanmar Plaza	စက်မှု (၁)/မြန်မာပလာဇာ	Kabar Aye Pagoda Road	ကမ္ဘာအေးဘုရားလမ်း	Bahan	ဗဟန်း	16.826940744308455	96.15445330739023
36-AungMingalar	47	1245	Lan Ni	လမ်းနီ	Kabar Aye Pagoda Road	ကမ္ဘာအေးဘုရားလမ်း	Mayangone	မရမ်းကုန်း	16.833775752063897	96.1553610675037
36-AungMingalar	48	1241	Yeik Thar	ရိပ်သာ	Kabar Aye Pagoda Road	ကမ္ဘာအေးဘုရားလမ်း	Mayangone	မရမ်းကုန်း	16.838336980039827	96.15606039718843
36-AungMingalar	49	37	Tayar-Chauk	-၁၀၆	Kabar Aye Pagoda Road	ကမ္ဘာအေးဘုရားလမ်း	Mayangone	မရမ်းကုန်း	16.84295	96.156608
36-AungMingalar	50	1817	Chaw Twin Kone	ချော်တွင်းကုန်း	Kabar Aye Pagoda Road	ကမ္ဘာအေးဘုရားလမ်း	Mayangone	မရမ်းကုန်း	16.850729427748476	96.15774345584215
36-AungMingalar	51	1238	Kabar Aye Paya/ Paya Lan	ကမ္ဘာအေးဘုရားလမ်း	Kabar Aye Pagoda Road	ကမ္ဘာအေးဘုရားလမ်း	Mayangone	မရမ်းကုန်း	16.856873	96.156653
36-AungMingalar	52	1240	Sar Taik	စာတိုက်	Kabar Aye Pagoda Road	ကမ္ဘာအေးဘုရားလမ်း	Mayangone	မရမ်းကုန်း	16.862603	96.155366
36-AungMingalar	53	38	Lan Wa/ Nawaday	လမ်းဝ/နဝဒေး	Thudhamar Road	သုဓမ္မာလမ်း	North Okkalapa	မြောက်ဥက္ကလာပ	16.867269	96.154778
36-AungMingalar	54	1281	Ngar Lan	(၅) လမ်း	Thudhamar Road	သုဓမ္မာလမ်း	North Okkalapa	မြောက်ဥက္ကလာပ	16.874128	96.156913
36-AungMingalar	55	1274	Hnit Zay	(၂) ဈေး	Thudhamar Road	သုဓမ္မာလမ်း	North Okkalapa	မြောက်ဥက္ကလာပ	16.878721968315737	96.15608145017178
36-AungMingalar	56	889	Phone Gyi Lan	ဘုန်းကြီးလမ်း	Thudhamar Road	သုဓမ္မာလမ်း	North Okkalapa	မြောက်ဥက္ကလာပ	16.881808877188373	96.15557153709234
36-AungMingalar	57	882	Ga-gyi Zay	(ဃ) ဈေး	Thudhamar Road	သုဓမ္မာလမ်း	North Okkalapa	မြောက်ဥက္ကလာပ	16.896452	96.159434
36-AungMingalar	58	861	Thandar	သန္တာ	Thudhamar Road	သုဓမ္မာလမ်း	North Okkalapa	မြောက်ဥက္ကလာပ	16.898997	96.162273
36-AungMingalar	59	865	Waziyar	ဝဇီယာ	Thudhamar Road	သုဓမ္မာလမ်း	North Okkalapa	မြောက်ဥက္ကလာပ	16.901507	96.16437
36-AungMingalar	60	849	Kan Tharyar	ကန်သာယာ	Thudhamar Road	သုဓမ္မာလမ်း	North Okkalapa	မြောက်ဥက္ကလာပ	16.913262787735245	96.16538791917266
36-AungMingalar	61	1823	Ayar	ဧရာ	Thudhamar Road	သုဓမ္မာလမ်း	North Okkalapa	မြောက်ဥက္ကလာပ	16.91730295539416	96.16369077237324
36-AungMingalar	62	818	Chauk Kwae	(၆) ကွေ့	Thudhamar Road	သုဓမ္မာလမ်း	North Okkalapa	မြောက်ဥက္ကလာပ	16.919091	96.162873
36-AungMingalar	63	810	Dhamar Yon	ဓမ္မာရုံ	Thudhamar Road	သုဓမ္မာလမ်း	North Okkalapa	မြောက်ဥက္ကလာပ	16.924198	96.158284
36-AungMingalar	64	813	Aung Mingalar A Way Pyay	အောင်မင်္ဂလာအဝေးပြေး	Thudhamar Road	သုဓမ္မာလမ်း	North Okkalapa	မြောက်ဥက္ကလာပ	16.926473729963266	96.15626067621635
