svc_name	sequence	stop_id	name_en	name_mm	road_en	road_mm	township_en	township_mm	lat	lng
70	1	2118	Nee Pyinyar Takke Tho (G.T.U)	နည်းပညာတက္ကသိုလ်(ဂျီတီယူ)	Thanlyin-Kyauktan Road	သန်လျှင်-ကျောက်တန်းလမ်း	Thanlyin	သန်လျင်	16.689966603091765	96.30743383197115
70	2	1846	Ko Tin Maung Chan Wa	ကိုတင်မောင်ခြံဝ	Thanlyin-Kyauktan Road	သန်လျှင်-ကျောက်တန်းလမ်း	Thanlyin	သန်လျင်	16.69593774696568	96.30585053237155
70	3	1844	Paya Lay	ဘုရားလေး	Thanlyin-Kyauktan Road	သန်လျှင်-ကျောက်တန်းလမ်း	Thanlyin	သန်လျင်	16.698724	96.304815
70	4	1842	Hta Ma Lon	ထားမလုံ	Thanlyin-Kyauktan Road	သန်လျှင်-ကျောက်တန်းလမ်း	Thanlyin	သန်လျင်	16.705506	96.297305
70	5	1840	Ngar Su	ငါးစု	Thanlyin-Kyauktan Road	သန်လျှင်-ကျောက်တန်းလမ်း	Thanlyin	သန်လျင်	16.7078077642116	96.2953667412512
70	6	1838	Saw Bwar	စော်ဘွား	Thanlyin-Kyauktan Road	သန်လျှင်-ကျောက်တန်းလမ်း	Thanlyin	သန်လျင်	16.711142605916432	96.29406381631271
70	7	1836	Nat Sin Koun	နတ်စင်ကုန်း	Thanlyin-Kyauktan Road	သန်လျှင်-ကျောက်တန်းလမ်း	Thanlyin	သန်လျင်	16.71348	96.292326
70	8	1834	Gate Wa	ဂိတ်ဝ	Thanlyin-Kyauktan Road	သန်လျှင်-ကျောက်တန်းလမ်း	Thanlyin	သန်လျင်	16.71611257817755	96.29061290295796
70	9	1832	Kyaik Inn	ကျိုက်အင်း	Thanlyin-Kyauktan Road	သန်လျှင်-ကျောက်တန်းလမ်း	Thanlyin	သန်လျင်	16.718722164172334	96.28919566981494
70	10	1830	San Set	ဆန်စက်	Thanlyin-Kyauktan Road	သန်လျှင်-ကျောက်တန်းလမ်း	Thanlyin	သန်လျင်	16.722754238486516	96.28501565661283
70	11	1828	Sit See Taw	စစ်စည်းတော	Thanlyin-Kyauktan Road	သန်လျှင်-ကျောက်တန်းလမ်း	Thanlyin	သန်လျင်	16.723936432703415	96.28343564691022
70	12	1826	Nat Sin Ta-Yar	နတ်စင်တစ်ရာ	Thanlyin-Kyauktan Road	သန်လျှင်-ကျောက်တန်းလမ်း	Thanlyin	သန်လျင်	16.726203047057044	96.2799837277271
70	13	1825	Paya Kone Lan Sone	ဘုရားကုန်းလမ်းဆုံ	Thanlyin-Kyauktan Road	သန်လျှင်-ကျောက်တန်းလမ်း	Thanlyin	သန်လျင်	16.728782051960934	96.2740002013743
70	14	1634	Paya Shae	ဘုရားရှေ့	Kyaik Khauk Pagoda Road	ကျိုက်ခေါက်ဘုရားလမ်း	Thanlyin	သန်လျင်	16.730064	96.272653
70	15	1632	Sae-Shit Kone	(၁၈) ကုန်း	Kyaik Khauk Pagoda Road	ကျိုက်ခေါက်ဘုရားလမ်း	Thanlyin	သန်လျင်	16.739455	96.268619
70	16	1630	Aung Chan Thar	အောင်ချမ်းသာ	Kyaik Khauk Pagoda Road	ကျိုက်ခေါက်ဘုရားလမ်း	Thanlyin	သန်လျင်	16.745619	96.265293
70	17	1812	Sal Myaung	ဆည်မြောင်း	Kyaik Khauk Pagoda Road	ကျိုက်ခေါက်ဘုရားလမ်း	Thanlyin	သန်လျင်	16.750962	96.261367
70	18	1643	Thama College	သမကောလိပ်	Thanlyin	သံလျင်	Thanlyin	သန်လျင်	16.75499102814598	96.2584948539734
70	19	1810	Kyar Paya	ကျားဘုရား	Kyaik Khauk Pagoda Road	ကျိုက်ခေါက်ဘုရားလမ်း	Thanlyin	သန်လျင်	16.757768	96.2566
70	20	1619	Mee Point	်မီးပွိုင့်	Kyaik Khauk Pagoda Road	ကျိုက်ခေါက်ဘုရားလမ်း	Thanlyin	သန်လျင်	16.77895653734981	96.24703176319599
70	21	508	Lat Hmat Gate	လက်မှတ်ဂိတ်	Kyaik Khauk Pagoda Road	ကျိုက်ခေါက်ဘုရားလမ်း	Thanlyin	သန်လျင်	16.778698	96.244222
70	22	549	Tadar Htate	တံတားထိပ်	Nawarat Pat Road	နဝရတ်ပတ်လမ်း	Thaketa	သာကေတ	16.801239084808206	96.22554207220674
70	23	547	Sauk Lote Yae	ဆောက်လုပ်ရေး	Yadanar Road	ရတနာလမ်း	Thaketa	သာကေတ	16.80292131131073	96.22375226346777
70	24	552	Tayar-Shit Taung	(၁၀၈) တောင်	Thalyin Thada Chin Kat Road	သန်လျှင်တံတားချင့်ကပ်လမ်း	Thaketa	သာကေတ	16.806509987261613	96.21929759625347
70	25	2159	Thaketa Awine	သာကေတအဝိုင်း	Ayar Wun Main Road	ဧရာဝဏ်လမ်းမကြီး	Thaketa	သာကေတ	16.806458694576083	96.21675431728363
70	26	530	Shit Gate	(၈) ဂိတ်	Ayar Wun Main Road	ဧရာဝဏ်လမ်းမကြီး	Thaketa	သာကေတ	16.804948553065124	96.21374232228845
70	27	526	Myayni	မြေနီ	Ayar Wun Main Road	ဧရာဝဏ်လမ်းမကြီး	Thaketa	သာကေတ	16.80369721392604	96.21009579626845
70	28	521	Kyaung Kwae	ကျောင်းကွေ့	Myintawthar Road	မြင်တော်သာလမ်း	Thaketa	သာကေတ	16.803613042116037	96.2064541107975
70	29	528	Paya Shae	ဘုရားရှေ့	Myintawthar Road	မြင်တော်သာလမ်း	Thaketa	သာကေတ	16.80207503442768	96.20659907581286
70	30	516	Khun Zay	(၇) ဈေး	Myintawthar Road	မြင်တော်သာလမ်း	Thaketa	သာကေတ	16.798961508627155	96.2058216542937
70	31	520	Kyan Mar Yae	ကျန်းမာရေး	Myintawthar Road	မြင်တော်သာလမ်း	Thaketa	သာကေတ	16.796622960548277	96.20468148496003
70	32	500	Yoke Shin Yon	ရုပ်ရှင်ရုံ	Myintawthar Road	မြင်တော်သာလမ်း	Thaketa	သာကေတ	16.793286245858457	96.20301669230687
70	33	456	Nal Myay Yon	နယ်မြေရုံး	Myintawthar Road	မြင်တော်သာလမ်း	Thaketa	သာကေတ	16.79088672158126	96.20202035643162
70	34	464	Sar Taik	စာတိုက်	Myintawthar Road	မြင်တော်သာလမ်း	Thaketa	သာကေတ	16.789011	96.200877
70	35	465	Si Saing	ဆီဆိုင်	Myintawthar Road	မြင်တော်သာလမ်း	Thaketa	သာကေတ	16.78630246461242	96.19955349946396
70	36	462	Khin Ma Ma Kyar	ခင်မမကြား	Myintawthar Road	မြင်တော်သာလမ်း	Thaketa	သာကေတ	16.784192789327605	96.19857505895199
70	37	1610	Thone Zay	(၃) ဈေး	Myintawthar Road	မြင်တော်သာလမ်း	Thaketa	သာကေတ	16.781520723693188	96.1972337239422
70	38	458	Ashae Kyar	အရှေ့ကြား	Myintawthar Road	မြင်တော်သာလမ်း	Thaketa	သာကေတ	16.780623653626908	96.19684635428713
70	39	436	Thone Gate Haung	(၃) ဂိတ်ဟောင်း	Myintawthar Road	မြင်တော်သာလမ်း	Daw Bon	ဒေါပုံ	16.777643735181925	96.19553163181992
70	40	430	Man Pyae	မာန်ပြေ	Yamonar Road	ယမုံနာလမ်း	Daw Bon	ဒေါပုံ	16.778396729199493	96.1940399883315
70	41	478	Yan Pyay	ရန်ပြေ	Yamonar Road	ယမုံနာလမ်း	Daw Bon	ဒေါပုံ	16.77987692794149	96.19138317648323
70	42	472	Thinbaw Kyin	သင်္ဘောကျင်း	Yamonar Road	ယမုံနာလမ်း	Daw Bon	ဒေါပုံ	16.781293798309072	96.18871798273177
70	43	2219	Ocean	အိုးရှင်း	Mahabandoola Road	မဟာဗန္ဓုလလမ်း	Botahtaung	ဗိုလ်တထောင်	16.77385	96.177383
70	44	471	Thinbaw Kyin	သင်္ဘောကျင်း	Yamonar Road	ယမုံနာလမ်း	Daw Bon	ဒေါပုံ	16.781900684172875	96.18712900439277
70	45	477	Yan Pyay	ရန်ပြေ	Yamonar Road	ယမုံနာလမ်း	Daw Bon	ဒေါပုံ	16.77991	96.191028
70	46	431	Man Pyae	မာန်ပြေ	Yamonar Road	ယမုံနာလမ်း	Daw Bon	ဒေါပုံ	16.7784294714913	96.19375705718996
70	47	435	Thone Gate Haung	(၃) ဂိတ်ဟောင်း	Myintawthar Road	မြင်တော်သာလမ်း	Daw Bon	ဒေါပုံ	16.777582603942278	96.19534492492677
70	48	457	Ashae Kyar	အရှေ့ကြား	Myintawthar Road	မြင်တော်သာလမ်း	Thaketa	သာကေတ	16.780419518135208	96.19686471065509
70	49	1611	Thone Zay	(၃) ဈေး	Myintawthar Road	မြင်တော်သာလမ်း	Thaketa	သာကေတ	16.78207390208331	96.19767741998659
70	50	461	Khin Ma Ma Kyar	ခင်မမကြား	Myintawthar Road	မြင်တော်သာလမ်း	Thaketa	သာကေတ	16.783881766824905	96.19853891199455
70	51	466	Si Saing	ဆီဆိုင်	Myintawthar Road	မြင်တော်သာလမ်း	Thaketa	သာကေတ	16.786320018726588	96.19977360824123
70	52	463	Sar Taik	စာတိုက်	Myintawthar Road	မြင်တော်သာလမ်း	Thaketa	သာကေတ	16.788826	96.201028
70	53	455	Nal Myay Yon	နယ်မြေရုံး	Myintawthar Road	မြင်တော်သာလမ်း	Thaketa	သာကေတ	16.79095866160968	96.20184789877386
70	54	499	Yoke Shin Yon	ရုပ်ရှင်ရုံ	Myintawthar Road	မြင်တော်သာလမ်း	Thaketa	သာကေတ	16.792664591229478	96.20284060947598
70	55	519	Kyan Mar Yae	ကျန်းမာရေး	Myintawthar Road	မြင်တော်သာလမ်း	Thaketa	သာကေတ	16.796244493961968	96.20461510028693
70	56	515	Khun Zay	(၇) ဈေး	Myintawthar Road	မြင်တော်သာလမ်း	Thaketa	သာကေတ	16.798736188866375	96.20582963805646
70	57	527	Paya Shae	ဘုရားရှေ့	Myintawthar Road	မြင်တော်သာလမ်း	Thaketa	သာကေတ	16.801955174820478	96.20668983086945
70	58	522	Kyaung Kwae	ကျောင်းကွေ့	Myintawthar Road	မြင်တော်သာလမ်း	Thaketa	သာကေတ	16.803614185536972	96.2065722118132
70	59	525	Myayni	မြေနီ	Ayar Wun Main Road	ဧရာဝဏ်လမ်းမကြီး	Thaketa	သာကေတ	16.803537897279856	96.20986435096712
70	60	529	Shit Gate	(၈) ဂိတ်	Ayar Wun Main Road	ဧရာဝဏ်လမ်းမကြီး	Thaketa	သာကေတ	16.804750521874205	96.21352799702437
70	61	553	Thaketa Awine	သာကေတအဝိုင်း	Ayar Wun Main Road	ဧရာဝဏ်လမ်းမကြီး	Thaketa	သာကေတ	16.80611452972553	96.21627231594177
70	62	551	Tayar-Shit Taung	(၁၀၈) တောင်	Thalyin Thada Chin Kat Road	သန်လျှင်တံတားချင့်ကပ်လမ်း	Thaketa	သာကေတ	16.806431	96.218966
70	63	545	Sauk Lote Yae	ဆောက်လုပ်ရေး	Thanlyin Tada Chint Road	သန်လျှင်တံတားချင့်လမ်း	Thaketa	သာကေတ	16.80298	96.223301
70	64	550	Tadar Htate	တံတားထိပ်	Nawarat Pat Road	နဝရတ်ပတ်လမ်း	Thaketa	သာကေတ	16.801254430912103	96.22528231702745
70	65	507	Lat Hmat Gate	လက်မှတ်ဂိတ်	Kyaik Khauk Pagoda Road	ကျိုက်ခေါက်ဘုရားလမ်း	Thanlyin	သန်လျင်	16.77839	96.243879
70	66	1618	Mee Point	်မီးပွိုင့်	Kyaik Khauk Pagoda Road	ကျိုက်ခေါက်ဘုရားလမ်း	Thanlyin	သန်လျင်	16.778739	96.247226
70	67	1811	Kyar Paya	ကျားဘုရား	Kyaik Khauk Pagoda Road	ကျိုက်ခေါက်ဘုရားလမ်း	Thanlyin	သန်လျင်	16.757735198524692	96.25641010701658
70	68	541	Thama College	သမကောလိပ်	Thanlyin	သံလျင်	Thanlyin	သန်လျင်	16.75506077459433	96.25814553815873
70	69	1813	Sal Myaung	ဆည်မြောင်း	Kyaik Khauk Pagoda Road	ကျိုက်ခေါက်ဘုရားလမ်း	Thanlyin	သန်လျင်	16.75087108658183	96.2610245961696
70	70	1629	Aung Chan Thar	အောင်ချမ်းသာ	Kyaik Khauk Pagoda Road	ကျိုက်ခေါက်ဘုရားလမ်း	Thanlyin	သန်လျင်	16.745436727103243	96.2650060420856
70	71	1631	Sae-Shit Kone	(၁၈) ကုန်း	Kyaik Khauk Pagoda Road	ကျိုက်ခေါက်ဘုရားလမ်း	Thanlyin	သန်လျင်	16.739825	96.26804
70	72	1633	Paya Shae	ဘုရားရှေ့	Kyaik Khauk Pagoda Road	ကျိုက်ခေါက်ဘုရားလမ်း	Thanlyin	သန်လျင်	16.730598	96.272482
70	73	1824	Paya Kone Lan Sone	ဘုရားကုန်းလမ်းဆုံ	Thanlyin-Kyauktan Road	သန်လျှင်-ကျောက်တန်းလမ်း	Thanlyin	သန်လျင်	16.72867187909715	96.2735345028341
70	74	1827	Nat Sin Ta-Yar	နတ်စင်တစ်ရာ	Thanlyin-Kyauktan Road	သန်လျှင်-ကျောက်တန်းလမ်း	Thanlyin	သန်လျင်	16.72618	96.279795
70	75	1831	San Set	ဆန်စက်	Thanlyin-Kyauktan Road	သန်လျှင်-ကျောက်တန်းလမ်း	Thanlyin	သန်လျင်	16.72271648954859	96.28485223045574
70	76	1833	Kyaik Inn	ကျိုက်အင်း	Thanlyin-Kyauktan Road	သန်လျှင်-ကျောက်တန်းလမ်း	Thanlyin	သန်လျင်	16.718699927752482	96.28904026933014
70	77	1835	Gate Wa	ဂိတ်ဝ	Thanlyin-Kyauktan Road	သန်လျှင်-ကျောက်တန်းလမ်း	Thanlyin	သန်လျင်	16.716027384216254	96.29043262917548
70	78	1837	Nat Sin Koun	နတ်စင်ကုန်း	Thanlyin-Kyauktan Road	သန်လျှင်-ကျောက်တန်းလမ်း	Thanlyin	သန်လျင်	16.713274	96.292069
70	79	1839	Saw Bwar	စော်ဘွား	Thanlyin-Kyauktan Road	သန်လျှင်-ကျောက်တန်းလမ်း	Thanlyin	သန်လျင်	16.711055	96.293914
70	80	1841	Ngar Su	ငါးစု	Thanlyin-Kyauktan Road	သန်လျှင်-ကျောက်တန်းလမ်း	Thanlyin	သန်လျင်	16.707849	96.295202
70	81	1843	Hta Ma Lon	ထားမလုံ	Thanlyin-Kyauktan Road	သန်လျှင်-ကျောက်တန်းလမ်း	Thanlyin	သန်လျင်	16.705342	96.297004
70	82	1845	Paya Lay	ဘုရားလေး	Thanlyin-Kyauktan Road	သန်လျှင်-ကျောက်တန်းလမ်း	Thanlyin	သန်လျင်	16.698622614431475	96.3046585628763
70	83	1847	Ko Tin Maung Chan Wa	ကိုတင်မောင်ခြံဝ	Thanlyin-Kyauktan Road	သန်လျှင်-ကျောက်တန်းလမ်း	Thanlyin	သန်လျင်	16.695801000704293	96.30572916241363
70	84	2119	Nee Pyinyar Takke Tho (G.T.U)	နည်းပညာတက္ကသိုလ်(ဂျီတီယူ)	Thanlyin-Kyauktan Road	သန်လျှင်-ကျောက်တန်းလမ်း	Thanlyin	သန်လျင်	16.68995813271067	96.30737094674261
