svc_name	sequence	stop_id	name_en	name_mm	road_en	road_mm	township_en	township_mm	lat	lng
16B	1	828	Hmaw Kyun	မော်ကျွန်း	Bagan Road	ပုဂံလမ်း	North Dagon	မြောက်ဒဂုံ	16.92308415603184	96.17624929407613
16B	2	824	Kar Gyi Gate	ကားကြီးဂိတ်	Wai Bargi Road	ဝေဘာဂီလမ်း	North Okkalapa	မြောက်ဥက္ကလာပ	16.921900056104676	96.17189386859538
16B	3	1607	Dhamar Yon	ဓမ္မာရုံ	Wai Bargi Road	ဝေဘာဂီလမ်း	North Okkalapa	မြောက်ဥက္ကလာပ	16.921450952209103	96.16945517482239
16B	4	826	Kyaung Lan	ကျောင်းလမ်း	Wai Bargi Road	ဝေဘာဂီလမ်း	North Okkalapa	မြောက်ဥက္ကလာပ	16.92091903074239	96.16779907839373
16B	5	819	Chauk Kwae	(၆) ကွေ့	Thudhamar Road	သုဓမ္မာလမ်း	North Okkalapa	မြောက်ဥက္ကလာပ	16.918460340415336	96.16298958426344
16B	6	2401	Ayar	ဧရာ	Thudhamar Road	သုဓမ္မာလမ်း	North Okkalapa	မြောက်ဥက္ကလာပ	16.9173295590306	96.163487280719
16B	7	850	Kan Tharyar	ကန်သာယာ	Thudhamar Road	သုဓမ္မာလမ်း	North Okkalapa	မြောက်ဥက္ကလာပ	16.913219783941475	96.16519050439821
16B	8	2181	Za-myin-zwe Zay	(ဈ) ဈေး	Khaymarthi Road	ခေမာသီလမ်း	North Okkalapa	မြောက်ဥက္ကလာပ	16.91189421976302	96.1621455056593
16B	9	806	Yoke Shin Yon	ရုပ်ရှင်ရုံ	Khaymarthi Road	ခေမာသီလမ်း	North Okkalapa	မြောက်ဥက္ကလာပ	16.911275	96.160062
16B	10	796	Nwe Thar Gi	နွယ်သာဂီ	Khaymarthi Road	ခေမာသီလမ်း	North Okkalapa	မြောက်ဥက္ကလာပ	16.909899460462768	96.15677897119895
16B	11	799	Mya Yadanar	ဲမြရတနာ	Khaymarthi Road	ခေမာသီလမ်း	North Okkalapa	မြောက်ဥက္ကလာပ	16.908163431703446	96.15518008125947
16B	12	808	Yone	ရုံး	Khaymarthi Road	ခေမာသီလမ်း	North Okkalapa	မြောက်ဥက္ကလာပ	16.906204	96.154612
16B	13	802	Oakkar	ဥက္ကာ	Khaymarthi Road	ခေမာသီလမ်း	North Okkalapa	မြောက်ဥက္ကလာပ	16.903042	96.154445
16B	14	798	May Dar Wi	မေဓာဝီ	Khaymarthi Road	ခေမာသီလမ်း	North Okkalapa	မြောက်ဥက္ကလာပ	16.899901488038225	96.15467708325015
16B	15	892	Yone Thit	ရုံးသစ်	Khaymarthi Road	ခေမာသီလမ်း	North Okkalapa	မြောက်ဥက္ကလာပ	16.895928	96.155689
16B	16	886	Kyauk Yae Twin	ကျောက်ရေတွင်း	Thudhamar Road	သုဓမ္မာလမ်း	North Okkalapa	မြောက်ဥက္ကလာပ	16.889501887498064	96.15369533188642
16B	17	890	Phone Gyi Lan	ဘုန်းကြီးလမ်း	Thudhamar Road	သုဓမ္မာလမ်း	North Okkalapa	မြောက်ဥက္ကလာပ	16.882105361836498	96.15514125209302
16B	18	1275	Hnit Zay	(၂) ဈေး	Thudhamar Road	သုဓမ္မာလမ်း	North Okkalapa	မြောက်ဥက္ကလာပ	16.878934279385433	96.15580279380085
16B	19	1821	Ngar Lan	(၅) လမ်း	Thudhamar Road	သုဓမ္မာလမ်း	North Okkalapa	မြောက်ဥက္ကလာပ	16.874205	96.156698
16B	20	1280	Lan Wa/ Nawaday	လမ်းဝ/နဝဒေး	Thudhamar Road	သုဓမ္မာလမ်း	North Okkalapa	မြောက်ဥက္ကလာပ	16.8672229261052	96.1545687261969
16B	21	1819	Nawaday	နဝဒေး	Kabar Aye Pagoda Road	ကမ္ဘာအေးဘုရားလမ်း	Mayangone	မရမ်းကုန်း	16.866879	96.152638
16B	22	1265	Myaing Hay Wun	မြိုင်ဟေဝန်ပန်းခြံ	Kabar Aye Pagoda Road	ကမ္ဘာအေးဘုရားလမ်း	Mayangone	မရမ်းကုန်း	16.866771	96.143438
16B	23	1267	Shit Mile	(၈) မိုင်	Kyaik Wine Pagoda Road	ကျိုက်ဝိုင်းဘုရားလမ်း	Mayangone	မရမ်းကုန်း	16.86567957937846	96.14160246681422
16B	24	1271	Ye Baw Haung	ရဲဘော်ဟောင်း	Kyaik Wine Pagoda Road	ကျိုက်ဝိုင်းဘုရားလမ်း	Mayangone	မရမ်းကုန်း	16.867634	96.137322
16B	25	1255	Kyaik Wine	ကျိုက်ဝိုင်း	Kyaik Wine Pagoda Road	ကျိုက်ဝိုင်းဘုရားလမ်း	Mayangone	မရမ်းကုန်း	16.86674	96.128717
16B	26	1257	Ye Yan Aung	ရဲရန်အောင်	Kyaik Wine Pagoda Road	ကျိုက်ဝိုင်းဘုရားလမ်း	Mayangone	မရမ်းကုန်း	16.866268	96.126003
16B	27	1221	Thamine Lan Son	သမိုင်းလမ်းဆုံ	Kyaik Wine Pagoda Road	ကျိုက်ဝိုင်းဘုရားလမ်း	Mayangone	မရမ်းကုန်း	16.863193	96.122404
16B	28	2402	Thamine Lan Son	သမိုင်းလမ်းဆုံ	Yangon-Insein Road	ရန်ကုန်-အင်းစိန်လမ်း	Mayangone	မရမ်းကုန်း	16.8633007849722	96.1216056346893
16B	29	1250	Kalar Kyaung	ကုလားကျောင်း	Yangon-Insein Road	ရန်ကုန်-အင်းစိန်လမ်း	Mayangone	မရမ်းကုန်း	16.864784	96.121143
16B	30	1252	Kha Wae Chan	ခဝဲခြံ	Yangon-Insein Road	ရန်ကုန်-အင်းစိန်လမ်း	Mayangone	မရမ်းကုန်း	16.869492	96.119748
16B	31	1311	B.P.I	ဘီပီအိုင်	Yangon-Insein Road	ရန်ကုန်-အင်းစိန်လမ်း	Insein	အင်းစိန်	16.875178616130857	96.11636074259879
16B	32	1312	Kyoe Kone	ကြို့ကုန်း	Yangon-Insein Road	ရန်ကုန်-အင်းစိန်လမ်း	Insein	အင်းစိန်	16.8784827070093	96.11278095748277
16B	33	1341	B.O.C	ဘီအိုစီ	Yangon-Insein Road	ရန်ကုန်-အင်းစိန်လမ်း	Insein	အင်းစိန်	16.884947027069753	96.11010398715734
16B	34	1346	Insein Pan Chan	အင်းစိန်ပန်းခြံ	Min Gyi Road	မင်းကြီးလမ်း	Insein	အင်းစိန်	16.8876457653682	96.1077884444967
16B	35	1344	Insein Gon Tadar/ Hino Gade	အင်းစိန်ကုန်းတံတား/ ဟီးနိုးဂိတ်	Lower Mingalardon Road	အောက်မင်္ဂလာဒုံလမ်း	Insein	အင်းစိန်	16.88813384885796	96.10589329618963
16B	36	1324	Insein Zay	အင်းစိန်ဈေး	Hlaing River Road	လှိုင်မြစ်လမ်း	Insein	အင်းစိန်	16.886986	96.102529
16B	37	1321	Htaung Boo Wa	ထောင်ဘူးဝ	Hlaing River Road	လှိုင်မြစ်လမ်း	Insein	အင်းစိန်	16.88626137149945	96.10031425952913
16B	38	1332	Pauk Taw Wa	ပေါက်တောဝ	Hlaing River Road	လှိုင်မြစ်လမ်း	Insein	အင်းစိန်	16.885151591308578	96.09710751101375
16B	39	1323	Insein Kannar	အင်းစိန်ကမ်းနား	Hlaing River Road	လှိုင်မြစ်လမ်း	Insein	အင်းစိန်	16.88350071428124	96.09398344997318
16B	40	31	Tit Htate	(၁) ထိပ်	Nyaung Done Road	ညောင်တန်းလမ်း	Hlaing Tharyar	လှိုင်သာယာ	16.87822689567304	96.07839097268881
16B	41	1139	Thone Htate	(၃) ထိပ်	Nyaung Done Road	ညောင်တန်းလမ်း	Hlaing Tharyar	လှိုင်သာယာ	16.87769609222099	96.0750614047356
16B	42	1135	Ngar Htate	(၅) ထိပ်	Nyaung Done Road	ညောင်တန်းလမ်း	Hlaing Tharyar	လှိုင်သာယာ	16.877163485866696	96.07127779629083
16B	43	2229	Yone Shae	ရုံးရှေ့	Nyaung Done Road	ညောင်တန်းလမ်း	Hlaing Tharyar	လှိုင်သာယာ	16.875759159838704	96.06262076402346
16B	44	1131	Mee Khwat Zay	မီးခွက်ဈေး	Nyaung Done Road	ညောင်တန်းလမ်း	Hlaing Tharyar	လှိုင်သာယာ	16.874082055613908	96.05199716635981
16B	45	1124	Sanay Ma	စနေမ	No. 5 Main Road	အမှတ်(၅)လမ်းမ	Hlaing Tharyar	လှိုင်သာယာ	16.872406206400104	96.04160020127894
16B	46	1121	B.O.C	ဘီအိုစီ	No. 5 Main Road	အမှတ်(၅)လမ်းမ	Hlaing Tharyar	လှိုင်သာယာ	16.872660575089096	96.03753967210653
16B	47	1126	Thama Kone	သမကုန်း	No. 5 Main Road	အမှတ်(၅)လမ်းမ	Hlaing Tharyar	လှိုင်သာယာ	16.87418313046785	96.03370373602957
16B	48	25	Dagon Ayar A Way Pyay	ဒဂုံဧရာအဝေးပြေး	No. 5 Main Road	အမှတ်(၅)လမ်းမ	Hlaing Tharyar	လှိုင်သာယာ	16.8781015165209	96.0241266153753
16B	49	1125	Thama Kone	သမကုန်း	No. 5 Main Road	အမှတ်(၅)လမ်းမ	Hlaing Tharyar	လှိုင်သာယာ	16.874074726406537	96.03354724589737
16B	50	1122	B.O.C	ဘီအိုစီ	No. 5 Main Road	အမှတ်(၅)လမ်းမ	Hlaing Tharyar	လှိုင်သာယာ	16.872540258842154	96.03740002959967
16B	51	1123	Sanay Ma	စနေမ	No. 5 Main Road	အမှတ်(၅)လမ်းမ	Hlaing Tharyar	လှိုင်သာယာ	16.872309492066083	96.04157363064589
16B	52	1130	Mee Khwat Zay	မီးခွက်ဈေး	Nyaung Done Road	ညောင်တန်းလမ်း	Hlaing Tharyar	လှိုင်သာယာ	16.8737204576502	96.05064585344736
16B	53	2228	Yone Shae	ရုံးရှေ့	Nyaung Done Road	ညောင်တန်းလမ်း	Hlaing Tharyar	လှိုင်သာယာ	16.87554135084313	96.06214673956858
16B	54	1134	Ngar Htate	(၅) ထိပ်	Nyaung Done Road	ညောင်တန်းလမ်း	Hlaing Tharyar	လှိုင်သာယာ	16.876926030577906	96.0713158154249
16B	55	1138	Thone Htate	(၃) ထိပ်	Nyaung Done Road	ညောင်တန်းလမ်း	Hlaing Tharyar	လှိုင်သာယာ	16.87758565487986	96.07507484033705
16B	56	30	Tit Htate	(၁) ထိပ်	Nyaung Done Road	ညောင်တန်းလမ်း	Hlaing Tharyar	လှိုင်သာယာ	16.87805870194198	96.07841479824857
16B	57	1322	Insein Kannar	အင်းစိန်ကမ်းနား	Hlaing River Road	လှိုင်မြစ်လမ်း	Insein	အင်းစိန်	16.883421651001527	96.09407741110773
16B	58	1331	Pauk Taw Wa	ပေါက်တောဝ	Hlaing River Road	လှိုင်မြစ်လမ်း	Insein	အင်းစိန်	16.885269032175547	96.09815135132523
16B	59	1320	Htaung Boo Wa	ထောင်ဘူးဝ	Hlaing River Road	လှိုင်မြစ်လမ်း	Insein	အင်းစိန်	16.88611064613942	96.10037052305418
16B	60	1325	Insein Zay	အင်းစိန်ဈေး	Hlaing River Road	လှိုင်မြစ်လမ်း	Insein	အင်းစိန်	16.886806885212575	96.10254005296157
16B	61	1343	Insein Gon Tadar/ Hino Gade	အင်းစိန်ကုန်းတံတား/ ဟီးနိုးဂိတ်	Lower Mingalardon Road	အောက်မင်္ဂလာဒုံလမ်း	Insein	အင်းစိန်	16.887979295238097	96.1057995236479
16B	62	1345	Insein Pan Chan	အင်းစိန်ပန်းခြံ	Min Gyi Road	မင်းကြီးလမ်း	Insein	အင်းစိန်	16.887531514108538	96.10758610535414
16B	63	1342	B.O.C	ဘီအိုစီ	Yangon-Insein Road	ရန်ကုန်-အင်းစိန်လမ်း	Insein	အင်းစိန်	16.884919917579392	96.10990806017071
16B	64	1313	Kyoe Kone	ကြို့ကုန်း	Yangon-Insein Road	ရန်ကုန်-အင်းစိန်လမ်း	Insein	အင်းစိန်	16.878436988253824	96.11263456754386
16B	65	1310	B.P.I	ဘီပီအိုင်	Yangon-Insein Road	ရန်ကုန်-အင်းစိန်လမ်း	Insein	အင်းစိန်	16.874841	96.116313
16B	66	1253	Kha Wae Chan	ခဝဲခြံ	Yangon-Insein Road	ရန်ကုန်-အင်းစိန်လမ်း	Mayangone	မရမ်းကုန်း	16.869274405472567	96.11956872744487
16B	67	1251	Kalar Kyaung	ကုလားကျောင်း	Yangon-Insein Road	ရန်ကုန်-အင်းစိန်လမ်း	Mayangone	မရမ်းကုန်း	16.865719	96.120693
16B	68	1222	Thamine Lan Son	သမိုင်းလမ်းဆုံ	Yangon-Insein Road	ရန်ကုန်-အင်းစိန်လမ်း	Mayangone	မရမ်းကုန်း	16.863580854665273	96.12128087785096
16B	69	1220	Thamine Lan Son	သမိုင်းလမ်းဆုံ	Kyaik Wine Pagoda Road	ကျိုက်ဝိုင်းဘုရားလမ်း	Mayangone	မရမ်းကုန်း	16.863106	96.122447
16B	70	1256	Ye Yan Aung	ရဲရန်အောင်	Kyaik Wine Pagoda Road	ကျိုက်ဝိုင်းဘုရားလမ်း	Mayangone	မရမ်းကုန်း	16.866135	96.126088
16B	71	1254	Kyaik Wine	ကျိုက်ဝိုင်း	Kyaik Wine Pagoda Road	ကျိုက်ဝိုင်းဘုရားလမ်း	Mayangone	မရမ်းကုန်း	16.866484	96.128696
16B	72	1270	Ye Baw Haung	ရဲဘော်ဟောင်း	Kyaik Wine Pagoda Road	ကျိုက်ဝိုင်းဘုရားလမ်း	Mayangone	မရမ်းကုန်း	16.86727899506374	96.13734873477371
16B	73	1266	Shit Mile	(၈) မိုင်	Kyaik Wine Pagoda Road	ကျိုက်ဝိုင်းဘုရားလမ်း	Mayangone	မရမ်းကုန်း	16.864713	96.141169
16B	74	1262	Myaing Hay Wun	မြိုင်ဟေဝန်ပန်းခြံ	Kabar Aye Pagoda Road	ကမ္ဘာအေးဘုရားလမ်း	Mayangone	မရမ်းကုန်း	16.866588278879597	96.14353745011616
16B	75	1820	Nawaday	နဝဒေး	Kabar Aye Pagoda Road	ကမ္ဘာအေးဘုရားလမ်း	Mayangone	မရမ်းကုန်း	16.866648920187888	96.15249755792323
16B	76	38	Lan Wa/ Nawaday	လမ်းဝ/နဝဒေး	Thudhamar Road	သုဓမ္မာလမ်း	North Okkalapa	မြောက်ဥက္ကလာပ	16.867269	96.154778
16B	77	1281	Ngar Lan	(၅) လမ်း	Thudhamar Road	သုဓမ္မာလမ်း	North Okkalapa	မြောက်ဥက္ကလာပ	16.874128	96.156913
16B	78	1274	Hnit Zay	(၂) ဈေး	Thudhamar Road	သုဓမ္မာလမ်း	North Okkalapa	မြောက်ဥက္ကလာပ	16.878721968315737	96.15608145017178
16B	79	889	Phone Gyi Lan	ဘုန်းကြီးလမ်း	Thudhamar Road	သုဓမ္မာလမ်း	North Okkalapa	မြောက်ဥက္ကလာပ	16.881808877188373	96.15557153709234
16B	80	885	Kyauk Yae Twin	ကျောက်ရေတွင်း	Thudhamar Road	သုဓမ္မာလမ်း	North Okkalapa	မြောက်ဥက္ကလာပ	16.88791116167424	96.15428918972613
16B	81	887	Myauk Okkalar Awine	မြောက်ဥက္ကလာအဝိုင်း	Thudhamar Road	သုဓမ္မာလမ်း	North Okkalapa	မြောက်ဥက္ကလာပ	16.892739761327437	96.15506128873677
16B	82	891	Yone Thit	ရုံးသစ်	Khaymarthi Road	ခေမာသီလမ်း	North Okkalapa	မြောက်ဥက္ကလာပ	16.895877	96.155904
16B	83	797	May Dar Wi	မေဓာဝီ	Khaymarthi Road	ခေမာသီလမ်း	North Okkalapa	မြောက်ဥက္ကလာပ	16.899113067809424	96.15498803090304
16B	84	801	Oakkar	ဥက္ကာ	Khaymarthi Road	ခေမာသီလမ်း	North Okkalapa	မြောက်ဥက္ကလာပ	16.902611	96.15467
16B	85	807	Yone	ရုံး	Khaymarthi Road	ခေမာသီလမ်း	North Okkalapa	မြောက်ဥက္ကလာပ	16.906199	96.154768
16B	86	800	Mya Yadanar	ဲမြရတနာ	Khaymarthi Road	ခေမာသီလမ်း	North Okkalapa	မြောက်ဥက္ကလာပ	16.908146329966318	96.15539201768117
16B	87	795	Nwe Thar Gi	နွယ်သာဂီ	Khaymarthi Road	ခေမာသီလမ်း	North Okkalapa	မြောက်ဥက္ကလာပ	16.909601	96.156623
16B	88	805	Yoke Shin Yon	ရုပ်ရှင်ရုံ	Khaymarthi Road	ခေမာသီလမ်း	North Okkalapa	မြောက်ဥက္ကလာပ	16.911152	96.1601
16B	89	867	Za-myin-zwe Zay	(ဈ) ဈေး	Khaymarthi Road	ခေမာသီလမ်း	North Okkalapa	မြောက်ဥက္ကလာပ	16.91164557770474	96.16181611781941
16B	90	848	Kan Tharyar	ကန်သာယာ	Thudhamar Road	သုဓမ္မာလမ်း	North Okkalapa	မြောက်ဥက္ကလာပ	16.91255523875324	96.1656310572289
16B	91	1823	Ayar	ဧရာ	Thudhamar Road	သုဓမ္မာလမ်း	North Okkalapa	မြောက်ဥက္ကလာပ	16.91730295539416	96.16369077237324
16B	92	825	Kyaung Lan	ကျောင်းလမ်း	Wai Bargi Road	ဝေဘာဂီလမ်း	North Okkalapa	မြောက်ဥက္ကလာပ	16.920713743497096	96.1675022961572
16B	93	1606	Dhamar Yon	ဓမ္မာရုံ	Wai Bargi Road	ဝေဘာဂီလမ်း	North Okkalapa	မြောက်ဥက္ကလာပ	16.921493974171383	96.17003819905221
16B	94	823	Kar Gyi Gate	ကားကြီးဂိတ်	Wai Bargi Road	ဝေဘာဂီလမ်း	North Okkalapa	မြောက်ဥက္ကလာပ	16.92185156127529	96.17261335020885
16B	95	827	Hmaw Kyun	မော်ကျွန်း	Bagan Road	ပုဂံလမ်း	North Dagon	မြောက်ဒဂုံ	16.922930613383453	96.17627328727397
