svc_name	sequence	stop_id	name_en	name_mm	road_en	road_mm	township_en	township_mm	lat	lng
36-ShwePaukKan	1	2212	Sin Phon Kwae	ဆင်ဖုံကွေ့	Hanthar Waddy Road	ဟံသာဝတီလမ်း	North Okkalapa	မြောက်ဥက္ကလာပ	16.93433974005151	96.1909826891497
36-ShwePaukKan	2	1605	Tadar Phyu	တံတားဖြူ	Bagan Road	ပုဂံလမ်း	North Okkalapa	မြောက်ဥက္ကလာပ	16.93284	96.189119
36-ShwePaukKan	3	2215	Kyauk Lan	ကျောက်လမ်း	Bagan Road	ပုဂံလမ်း	North Okkalapa	မြောက်ဥက္ကလာပ	16.931752	96.187874
36-ShwePaukKan	4	839	Say Yon Kwae	ဆေးရုံကွေ့	Bagan Road	ပုဂံလမ်း	North Dagon	မြောက်ဒဂုံ	16.930205137652255	96.18605928495526
36-ShwePaukKan	5	830	Mee Thet	မီးသတ်	Bagan Road	ပုဂံလမ်း	North Okkalapa	မြောက်ဥက္ကလာပ	16.928036445729113	96.18344400543721
36-ShwePaukKan	6	833	Min Htoo Kyaw	မင်းထူးကျော်	Bagan Road	ပုဂံလမ်း	North Dagon	မြောက်ဒဂုံ	16.92693338661236	96.18214916903527
36-ShwePaukKan	7	835	Sal Myaung	ဆည်မြောင်း	Bagan Road	ပုဂံလမ်း	North Dagon	မြောက်ဒဂုံ	16.924487965862433	96.1793710710481
36-ShwePaukKan	8	828	Hmaw Kyun	မော်ကျွန်း	Bagan Road	ပုဂံလမ်း	North Dagon	မြောက်ဒဂုံ	16.92308415603184	96.17624929407613
36-ShwePaukKan	9	824	Kar Gyi Gate	ကားကြီးဂိတ်	Wai Bargi Road	ဝေဘာဂီလမ်း	North Okkalapa	မြောက်ဥက္ကလာပ	16.921900056104676	96.17189386859538
36-ShwePaukKan	10	1607	Dhamar Yon	ဓမ္မာရုံ	Wai Bargi Road	ဝေဘာဂီလမ်း	North Okkalapa	မြောက်ဥက္ကလာပ	16.921450952209103	96.16945517482239
36-ShwePaukKan	11	826	Kyaung Lan	ကျောင်းလမ်း	Wai Bargi Road	ဝေဘာဂီလမ်း	North Okkalapa	မြောက်ဥက္ကလာပ	16.92091903074239	96.16779907839373
36-ShwePaukKan	12	819	Chauk Kwae	(၆) ကွေ့	Thudhamar Road	သုဓမ္မာလမ်း	North Okkalapa	မြောက်ဥက္ကလာပ	16.918460340415336	96.16298958426344
36-ShwePaukKan	13	2401	Ayar	ဧရာ	Thudhamar Road	သုဓမ္မာလမ်း	North Okkalapa	မြောက်ဥက္ကလာပ	16.9173295590306	96.163487280719
36-ShwePaukKan	14	850	Kan Tharyar	ကန်သာယာ	Thudhamar Road	သုဓမ္မာလမ်း	North Okkalapa	မြောက်ဥက္ကလာပ	16.913219783941475	96.16519050439821
36-ShwePaukKan	15	858	Ou Zanar	ဥဇ္ဇနာ	Thudhamar Road	သုဓမ္မာလမ်း	North Okkalapa	မြောက်ဥက္ကလာပ	16.910967	96.165856
36-ShwePaukKan	16	843	Eindar	က္ကန္ဒာ	Thudhamar Road	သုဓမ္မာလမ်း	North Okkalapa	မြောက်ဥက္ကလာပ	16.90722	96.166135
36-ShwePaukKan	17	864	Thu Nandar	သုနန္ဒာ	Thudhamar Road	သုဓမ္မာလမ်း	North Okkalapa	မြောက်ဥက္ကလာပ	16.903951	96.165427
36-ShwePaukKan	18	866	Waziyar	ဝဇီယာ	Thudhamar Road	သုဓမ္မာလမ်း	North Okkalapa	မြောက်ဥက္ကလာပ	16.901323	96.164128
36-ShwePaukKan	19	862	Thandar	သန္တာ	Thudhamar Road	သုဓမ္မာလမ်း	North Okkalapa	မြောက်ဥက္ကလာပ	16.899026	96.162241
36-ShwePaukKan	20	883	Ga-gyi Zay	(ဃ) ဈေး	Thudhamar Road	သုဓမ္မာလမ်း	North Okkalapa	မြောက်ဥက္ကလာပ	16.89677	96.159541
36-ShwePaukKan	21	888	Myauk Okkalar Awine	မြောက်ဥက္ကလာအဝိုင်း	Thudhamar Road	သုဓမ္မာလမ်း	North Okkalapa	မြောက်ဥက္ကလာပ	16.892729094424542	96.15465329959991
36-ShwePaukKan	22	886	Kyauk Yae Twin	ကျောက်ရေတွင်း	Thudhamar Road	သုဓမ္မာလမ်း	North Okkalapa	မြောက်ဥက္ကလာပ	16.889501887498064	96.15369533188642
36-ShwePaukKan	23	887	Myauk Okkalar Awine	မြောက်ဥက္ကလာအဝိုင်း	Thudhamar Road	သုဓမ္မာလမ်း	North Okkalapa	မြောက်ဥက္ကလာပ	16.892739761327437	96.15506128873677
36-ShwePaukKan	24	885	Kyauk Yae Twin	ကျောက်ရေတွင်း	Thudhamar Road	သုဓမ္မာလမ်း	North Okkalapa	မြောက်ဥက္ကလာပ	16.88791116167424	96.15428918972613
36-ShwePaukKan	25	890	Phone Gyi Lan	ဘုန်းကြီးလမ်း	Thudhamar Road	သုဓမ္မာလမ်း	North Okkalapa	မြောက်ဥက္ကလာပ	16.882105361836498	96.15514125209302
36-ShwePaukKan	26	1275	Hnit Zay	(၂) ဈေး	Thudhamar Road	သုဓမ္မာလမ်း	North Okkalapa	မြောက်ဥက္ကလာပ	16.878934279385433	96.15580279380085
36-ShwePaukKan	27	1821	Ngar Lan	(၅) လမ်း	Thudhamar Road	သုဓမ္မာလမ်း	North Okkalapa	မြောက်ဥက္ကလာပ	16.874205	96.156698
36-ShwePaukKan	28	1280	Lan Wa/ Nawaday	လမ်းဝ/နဝဒေး	Thudhamar Road	သုဓမ္မာလမ်း	North Okkalapa	မြောက်ဥက္ကလာပ	16.8672229261052	96.1545687261969
36-ShwePaukKan	29	1818	Sar Taik	စာတိုက်	Kabar Aye Pagoda Road	ကမ္ဘာအေးဘုရားလမ်း	Mayangone	မရမ်းကုန်း	16.861586	96.155325
36-ShwePaukKan	30	1239	Kabar Aye Paya/ Paya Lan	ကမ္ဘာအေးဘုရားလမ်း	Kabar Aye Pagoda Road	ကမ္ဘာအေးဘုရားလမ်း	Mayangone	မရမ်းကုန်း	16.85825079611413	96.15602290257813
36-ShwePaukKan	31	1236	Chaw Twin Kone	ချော်တွင်းကုန်း	Kabar Aye Pagoda Road	ကမ္ဘာအေးဘုရားလမ်း	Mayangone	မရမ်းကုန်း	16.848967	96.157233
36-ShwePaukKan	32	36	Tayar-Chauk	-၁၀၆	Kabar Aye Pagoda Road	ကမ္ဘာအေးဘုရားလမ်း	Mayangone	မရမ်းကုန်း	16.842775	96.156468
36-ShwePaukKan	33	1242	Yeik Thar	ရိပ်သာ	Kabar Aye Pagoda Road	ကမ္ဘာအေးဘုရားလမ်း	Mayangone	မရမ်းကုန်း	16.83789230363614	96.15568609020558
36-ShwePaukKan	34	1246	Lan Ni	လမ်းနီ	Kabar Aye Pagoda Road	ကမ္ဘာအေးဘုရားလမ်း	Mayangone	မရမ်းကုန်း	16.833849962299986	96.15510751493277
36-ShwePaukKan	35	2424	Set Hmu Tit/Myanmar Plaza	စက်မှု (၁)/မြန်မာပလာဇာ	Kabar Aye Pagoda Road	ကမ္ဘာအေးဘုရားလမ်း	Bahan	ဗဟန်း	16.8270325276271	96.1542052030563
36-ShwePaukKan	36	324	Kokkaing/ Kyaung Shae	ကုက္ကိုင်း/ ကျောင်းရှေ့	Kabar Aye Pagoda Road	ကမ္ဘာအေးဘုရားလမ်း	Bahan	ဗဟန်း	16.820614	96.155217
36-ShwePaukKan	37	322	Har Mit Tic	ဟာမစ်တစ်	Kabar Aye Pagoda Road	ကမ္ဘာအေးဘုရားလမ်း	Bahan	ဗဟန်း	16.814847	96.155824
36-ShwePaukKan	38	230	Shwe Gon Daing	ရွှေဂုံတိုင်	Kabar Aye Pagoda Road	ကမ္ဘာအေးဘုရားလမ်း	Bahan	ဗဟန်း	16.80519530942897	96.1557773128152
36-ShwePaukKan	39	209	Bahan Thone Lan	ဗဟန်းသုံးလမ်း	Bahan Road	ဗဟန်းလမ်း	Bahan	ဗဟန်း	16.798049388513782	96.15706854499878
36-ShwePaukKan	40	202	Kyauk Taing	ကျောက်တိုင်	ZOOlogical Garden Road	တိရိစ္ဆာန်ဥယျာဉ်လမ်း	Dagon	ဒဂုံ	16.7887528427616	96.15719425259158
36-ShwePaukKan	41	194	Youk Lan	ယောက်လမ်း	Alanpya Pagoda Road	အလံပြဘုရားလမ်း	Dagon	ဒဂုံ	16.78267426523096	96.15894223563376
36-ShwePaukKan	42	144	Yoke Shin Yon	ရုပ်ရှင်ရုံ	Sule Pagoda Road	ဆူးလေးဘုရားလမ်း	Pabedan	ပန်းဘဲတန်း	16.777455	96.158736
36-ShwePaukKan	43	141	Sule Myodaw Khan Ma	ဆူးလေမြို့တော်ခန်းမ	Sule Pagoda Road	ဆူးလေးဘုရားလမ်း	Kyauktada	ကျောက်တံတား	16.775683412852157	96.15891139023006
36-ShwePaukKan	44	195	Youk Lan	ယောက်လမ်း	Gyo Phyu Road	ဂျိုးဖြူလမ်း	Mingalar Taung Nyunt	မင်္ဂလာတောင်ညွန့်	16.785509	96.159488
36-ShwePaukKan	45	203	Kyauk Taing	ကျောက်တိုင်	ZOOlogical Garden Road	တိရိစ္ဆာန်ဥယျာဉ်လမ်း	Dagon	ဒဂုံ	16.789040545760724	96.15748437121512
36-ShwePaukKan	46	208	Bahan Thone Lan	ဗဟန်းသုံးလမ်း	Bahan Road	ဗဟန်းလမ်း	Bahan	ဗဟန်း	16.79706005725926	96.15702768322082
36-ShwePaukKan	47	210	Yae Khae Saing	ရေခဲဆိုင်	Koe Min Ko Chin Road	ကိုယ်မင်းကိုယ်ချင်းလမ်း	Bahan	ဗဟန်း	16.801598383916467	96.15790716849006
36-ShwePaukKan	48	2425	Shwe Gon Daing	ရွှေဂုံတိုင်	Kabar Aye Pagoda Road	ကမ္ဘာအေးဘုရားလမ်း	Bahan	ဗဟန်း	16.8052802428109	96.1559515935369
36-ShwePaukKan	49	321	Har Mit Tic	ဟာမစ်တစ်	Kabar Aye Pagoda Road	ကမ္ဘာအေးဘုရားလမ်း	Bahan	ဗဟန်း	16.810533	96.156242
36-ShwePaukKan	50	323	Kokkaing/ Kyaung Shae	ကုက္ကိုင်း/ ကျောင်းရှေ့	Kabar Aye Pagoda Road	ကမ္ဘာအေးဘုရားလမ်း	Bahan	ဗဟန်း	16.820902	96.155249
36-ShwePaukKan	51	325	Set Hmu Tit/Myanmar Plaza	စက်မှု (၁)/မြန်မာပလာဇာ	Kabar Aye Pagoda Road	ကမ္ဘာအေးဘုရားလမ်း	Bahan	ဗဟန်း	16.826940744308455	96.15445330739023
36-ShwePaukKan	52	1245	Lan Ni	လမ်းနီ	Kabar Aye Pagoda Road	ကမ္ဘာအေးဘုရားလမ်း	Mayangone	မရမ်းကုန်း	16.833775752063897	96.1553610675037
36-ShwePaukKan	53	1241	Yeik Thar	ရိပ်သာ	Kabar Aye Pagoda Road	ကမ္ဘာအေးဘုရားလမ်း	Mayangone	မရမ်းကုန်း	16.838336980039827	96.15606039718843
36-ShwePaukKan	54	37	Tayar-Chauk	-၁၀၆	Kabar Aye Pagoda Road	ကမ္ဘာအေးဘုရားလမ်း	Mayangone	မရမ်းကုန်း	16.84295	96.156608
36-ShwePaukKan	55	1817	Chaw Twin Kone	ချော်တွင်းကုန်း	Kabar Aye Pagoda Road	ကမ္ဘာအေးဘုရားလမ်း	Mayangone	မရမ်းကုန်း	16.850729427748476	96.15774345584215
36-ShwePaukKan	56	1238	Kabar Aye Paya/ Paya Lan	ကမ္ဘာအေးဘုရားလမ်း	Kabar Aye Pagoda Road	ကမ္ဘာအေးဘုရားလမ်း	Mayangone	မရမ်းကုန်း	16.856873	96.156653
36-ShwePaukKan	57	1240	Sar Taik	စာတိုက်	Kabar Aye Pagoda Road	ကမ္ဘာအေးဘုရားလမ်း	Mayangone	မရမ်းကုန်း	16.862603	96.155366
36-ShwePaukKan	58	38	Lan Wa/ Nawaday	လမ်းဝ/နဝဒေး	Thudhamar Road	သုဓမ္မာလမ်း	North Okkalapa	မြောက်ဥက္ကလာပ	16.867269	96.154778
36-ShwePaukKan	59	1281	Ngar Lan	(၅) လမ်း	Thudhamar Road	သုဓမ္မာလမ်း	North Okkalapa	မြောက်ဥက္ကလာပ	16.874128	96.156913
36-ShwePaukKan	60	1274	Hnit Zay	(၂) ဈေး	Thudhamar Road	သုဓမ္မာလမ်း	North Okkalapa	မြောက်ဥက္ကလာပ	16.878721968315737	96.15608145017178
36-ShwePaukKan	61	889	Phone Gyi Lan	ဘုန်းကြီးလမ်း	Thudhamar Road	သုဓမ္မာလမ်း	North Okkalapa	မြောက်ဥက္ကလာပ	16.881808877188373	96.15557153709234
36-ShwePaukKan	62	882	Ga-gyi Zay	(ဃ) ဈေး	Thudhamar Road	သုဓမ္မာလမ်း	North Okkalapa	မြောက်ဥက္ကလာပ	16.896452	96.159434
36-ShwePaukKan	63	861	Thandar	သန္တာ	Thudhamar Road	သုဓမ္မာလမ်း	North Okkalapa	မြောက်ဥက္ကလာပ	16.898997	96.162273
36-ShwePaukKan	64	865	Waziyar	ဝဇီယာ	Thudhamar Road	သုဓမ္မာလမ်း	North Okkalapa	မြောက်ဥက္ကလာပ	16.901507	96.16437
36-ShwePaukKan	65	863	Thu Nandar	သုနန္ဒာ	Thudhamar Road	သုဓမ္မာလမ်း	North Okkalapa	မြောက်ဥက္ကလာပ	16.90436155507222	96.16570844314994
36-ShwePaukKan	66	842	Eindar	က္ကန္ဒာ	Thudhamar Road	သုဓမ္မာလမ်း	North Okkalapa	မြောက်ဥက္ကလာပ	16.906969	96.16621
36-ShwePaukKan	67	857	Ou Zanar	ဥဇ္ဇနာ	Thudhamar Road	သုဓမ္မာလမ်း	North Okkalapa	မြောက်ဥက္ကလာပ	16.910726	96.166001
36-ShwePaukKan	68	848	Kan Tharyar	ကန်သာယာ	Thudhamar Road	သုဓမ္မာလမ်း	North Okkalapa	မြောက်ဥက္ကလာပ	16.91255523875324	96.1656310572289
36-ShwePaukKan	69	1823	Ayar	ဧရာ	Thudhamar Road	သုဓမ္မာလမ်း	North Okkalapa	မြောက်ဥက္ကလာပ	16.91730295539416	96.16369077237324
36-ShwePaukKan	70	820	Chauk Kwae	(၆) ကွေ့	Wai Bargi Road	ဝေဘာဂီလမ်း	North Okkalapa	မြောက်ဥက္ကလာပ	16.918906604656474	96.16331216180699
36-ShwePaukKan	71	825	Kyaung Lan	ကျောင်းလမ်း	Wai Bargi Road	ဝေဘာဂီလမ်း	North Okkalapa	မြောက်ဥက္ကလာပ	16.920713743497096	96.1675022961572
36-ShwePaukKan	72	1606	Dhamar Yon	ဓမ္မာရုံ	Wai Bargi Road	ဝေဘာဂီလမ်း	North Okkalapa	မြောက်ဥက္ကလာပ	16.921493974171383	96.17003819905221
36-ShwePaukKan	73	822	Kar Gyi Gate	ကားကြီးဂိတ်	Wai Bargi Road	ဝေဘာဂီလမ်း	North Okkalapa	မြောက်ဥက္ကလာပ	16.921710988346664	96.17188632488252
36-ShwePaukKan	74	827	Hmaw Kyun	မော်ကျွန်း	Bagan Road	ပုဂံလမ်း	North Dagon	မြောက်ဒဂုံ	16.922930613383453	96.17627328727397
36-ShwePaukKan	75	834	Sal Myaung	ဆည်မြောင်း	Bagan Road	ပုဂံလမ်း	North Dagon	မြောက်ဒဂုံ	16.92439803413906	96.17941105272624
36-ShwePaukKan	76	831	Min Htoo Kyaw	မင်းထူးကျော်	Bagan Road	ပုဂံလမ်း	North Dagon	မြောက်ဒဂုံ	16.92655129171389	96.18205952458085
36-ShwePaukKan	77	829	Mee Thet	မီးသတ်	Bagan Road	ပုဂံလမ်း	North Okkalapa	မြောက်ဥက္ကလာပ	16.928234187397052	96.18398673366755
36-ShwePaukKan	78	838	Say Yon Kwae	ဆေးရုံကွေ့	Bagan Road	ပုဂံလမ်း	North Dagon	မြောက်ဒဂုံ	16.93007106605814	96.18623287416996
36-ShwePaukKan	79	2214	Kyauk Lan	ကျောက်လမ်း	Bagan Road	ပုဂံလမ်း	North Okkalapa	မြောက်ဥက္ကလာပ	16.931444	96.187917
36-ShwePaukKan	80	1604	Tadar Phyu	တံတားဖြူ	Bagan Road	ပုဂံလမ်း	North Okkalapa	မြောက်ဥက္ကလာပ	16.932614	96.189269
36-ShwePaukKan	81	2213	Sin Phon Kwae	ဆင်ဖုံကွေ့	Hanthar Waddy Road	ဟံသာဝတီလမ်း	North Okkalapa	မြောက်ဥက္ကလာပ	16.934114220813353	96.19095821399243
