svc_name	sequence	stop_id	name_en	name_mm	road_en	road_mm	township_en	township_mm	lat	lng
92-Thudhamma	1	1971	Htauk Kyant Lan Sone	ထောက်ကြန့်လမ်းဆုံ	No. 1 Main Road	အမှတ်(၁)လမ်းမ	Mingalardon	မင်္ဂလာဒုံ	17.04259003163401	96.13333130953836
92-Thudhamma	2	2207	Lan Thit	လမ်းသစ်	No. 1 Main Road	အမှတ်(၁)လမ်းမ	Mingalardon	မင်္ဂလာဒုံ	17.037858185780333	96.1312585277483
92-Thudhamma	3	1468	Kyaung Shae	ကျောင်းရှေ့	No. 1 Main Road	အမှတ်(၁)လမ်းမ	Mingalardon	မင်္ဂလာဒုံ	17.031038	96.13187
92-Thudhamma	4	65	Tit Yat Kwat	(၁) ရပ်ကွက်	No. 3 Set Thwe Road	အမှတ်(၃)စက်သွယ်လမ်း	Mingalardon	မင်္ဂလာဒုံ	17.026319	96.13614
92-Thudhamma	5	1470	Lay Yat Kwet	(၄) ရပ်ကွက်	No. 3 Set Thwe Road	အမှတ်(၃)စက်သွယ်လမ်း	Mingalardon	မင်္ဂလာဒုံ	17.024106080620214	96.13848494365811
92-Thudhamma	6	62	Nwe Khwe	နွယ်ခွေ	No. 3 Set Thwe Road	အမှတ်(၃)စက်သွယ်လမ်း	Mingalardon	မင်္ဂလာဒုံ	17.022687	96.140088
92-Thudhamma	7	1481	War Saing	ဝါးဆိုင်	No. 3 Set Thwe Road	အမှတ်(၃)စက်သွယ်လမ်း	Mingalardon	မင်္ဂလာဒုံ	17.020123	96.142577
92-Thudhamma	8	1477	Site Thit	ဆိုက်သစ်	No. 3 Set Thwe Road	အမှတ်(၃)စက်သွယ်လမ်း	Mingalardon	မင်္ဂလာဒုံ	17.015301	96.145109
92-Thudhamma	9	1483	Yae Set	ရေစက်	No. 3 Main Road	အမှတ်(၃)လမ်းမ	Mingalardon	မင်္ဂလာဒုံ	17.006469234153574	96.14451098721477
92-Thudhamma	10	1478	Tat Yin Koe	တပ်ရင်း (၉)	No. 3 Main Road	အမှတ်(၃)လမ်းမ	Mingalardon	မင်္ဂလာဒုံ	17.002538	96.144294
92-Thudhamma	11	1464	Kon Ta La Paung	ကုန်းတလပေါင်	No. 3 Main Road	အမှတ်(၃)လမ်းမ	Mingalardon	မင်္ဂလာဒုံ	17.000527	96.144336
92-Thudhamma	12	1433	London Set Yon	လန်ဒန်စက်ရုံ	No. 3 Main Road	အမှတ်(၃)လမ်းမ	Mingalardon	မင်္ဂလာဒုံ	16.99698455866258	96.14451358560474
92-Thudhamma	13	1441	Saing Bote	ဆိုင်းဘုတ်	No. 3 Main Road	အမှတ်(၃)လမ်းမ	Mingalardon	မင်္ဂလာဒုံ	16.994658	96.143864
92-Thudhamma	14	56	Nilar	နီလာ	No. 3 Main Road	အမှတ်(၃)လမ်းမ	Mingalardon	မင်္ဂလာဒုံ	16.99277	96.143972
92-Thudhamma	15	1429	Hmoe Yon	မှိုုရုံ	No. 3 Main Road	အမှတ်(၃)လမ်းမ	Mingalardon	မင်္ဂလာဒုံ	16.989097	96.144401
92-Thudhamma	16	1456	Thone Thone Lone	သုံးသုံးလုံး	No. 3 Main Road	အမှတ်(၃)လမ်းမ	Mingalardon	မင်္ဂလာဒုံ	16.983823	96.146332
92-Thudhamma	17	1452	Palae Lan Sone	ပုလဲလမ်းဆုံ	No. 3 Main Road	အမှတ်(၃)လမ်းမ	Mingalardon	မင်္ဂလာဒုံ	16.981853	96.146933
92-Thudhamma	18	1455	Tadar Phyu	တံတားဖြူ	No. 3 Main Road	အမှတ်(၃)လမ်းမ	Mingalardon	မင်္ဂလာဒုံ	16.977440741057922	96.14751631859691
92-Thudhamma	19	1459	Yakhine Kyaung	ရခိုင်ကျောင်း	No. 3 Main Road	အမှတ်(၃)လမ်းမ	Mingalardon	မင်္ဂလာဒုံ	16.974957	96.147534
92-Thudhamma	20	1449	Chauk Lan	(၆) လမ်း	No. 3 Main Road	အမှတ်(၃)လမ်းမ	Mingalardon	မင်္ဂလာဒုံ	16.970791	96.147684
92-Thudhamma	21	1451	Palae Eain Yar	ပုလဲအိမ်ယာ	No. 3 Main Road	အမှတ်(၃)လမ်းမ	Mingalardon	မင်္ဂလာဒုံ	16.968842	96.147727
92-Thudhamma	22	52	Sae-Hnit Lan	(၁၂) လမ်း	No. 3 Main Road	အမှတ်(၃)လမ်းမ	Mingalardon	မင်္ဂလာဒုံ	16.964983	96.147943
92-Thudhamma	23	1425	Thingangyun	သင်္ဃန်းကျွန်း	No. 3 Main Road	အမှတ်(၃)လမ်းမ	Mingalardon	မင်္ဂလာဒုံ	16.962554092600918	96.14797807764262
92-Thudhamma	24	1421	Nyaung Pin	ညောင်ပင်	No. 3 Main Road	အမှတ်(၃)လမ်းမ	Mingalardon	မင်္ဂလာဒုံ	16.957061	96.148778
92-Thudhamma	25	1422	Oh Eain	အိုးအိမ်	No. 3 Main Road	အမှတ်(၃)လမ်းမ	Mingalardon	မင်္ဂလာဒုံ	16.953038	96.149508
92-Thudhamma	26	589	Ta Yar Yone	တရားရုံး	No. 3 Main Road	အမှတ်(၃)လမ်းမ	Mingalardon	မင်္ဂလာဒုံ	16.947966453810754	96.15033205132933
92-Thudhamma	27	1415	Alal Pauk	အလယ်ပေါက်	No. 3 Main Road	အမှတ်(၃)လမ်းမ	Mingalardon	မင်္ဂလာဒုံ	16.940763	96.151611
92-Thudhamma	28	1417	Ah-Hmat-Thone Lan Sone	အမှတ် (၃) လမ်းဆုံ	No. 3 Main Road	အမှတ်(၃)လမ်းမ	Mingalardon	မင်္ဂလာဒုံ	16.935217538537646	96.15312103891485
92-Thudhamma	29	814	Tat Htate	တပ်ထိပ်	Thudhamar Road	သုဓမ္မာလမ်း	North Okkalapa	မြောက်ဥက္ကလာပ	16.9295660314581	96.1546517489478
92-Thudhamma	30	812	Aung Mingalar A Way Pyay	အောင်မင်္ဂလာအဝေးပြေး	Thudhamar Road	သုဓမ္မာလမ်း	North Okkalapa	မြောက်ဥက္ကလာပ	16.926507148276386	96.15606020204724
92-Thudhamma	31	809	Dhamar Yon	ဓမ္မာရုံ	Thudhamar Road	သုဓမ္မာလမ်း	North Okkalapa	မြောက်ဥက္ကလာပ	16.924125873138063	96.15775667829439
92-Thudhamma	32	819	Chauk Kwae	(၆) ကွေ့	Thudhamar Road	သုဓမ္မာလမ်း	North Okkalapa	မြောက်ဥက္ကလာပ	16.918460340415336	96.16298958426344
92-Thudhamma	33	2401	Ayar	ဧရာ	Thudhamar Road	သုဓမ္မာလမ်း	North Okkalapa	မြောက်ဥက္ကလာပ	16.9173295590306	96.163487280719
92-Thudhamma	34	850	Kan Tharyar	ကန်သာယာ	Thudhamar Road	သုဓမ္မာလမ်း	North Okkalapa	မြောက်ဥက္ကလာပ	16.913219783941475	96.16519050439821
92-Thudhamma	35	858	Ou Zanar	ဥဇ္ဇနာ	Thudhamar Road	သုဓမ္မာလမ်း	North Okkalapa	မြောက်ဥက္ကလာပ	16.910967	96.165856
92-Thudhamma	36	843	Eindar	က္ကန္ဒာ	Thudhamar Road	သုဓမ္မာလမ်း	North Okkalapa	မြောက်ဥက္ကလာပ	16.90722	96.166135
92-Thudhamma	37	864	Thu Nandar	သုနန္ဒာ	Thudhamar Road	သုဓမ္မာလမ်း	North Okkalapa	မြောက်ဥက္ကလာပ	16.903951	96.165427
92-Thudhamma	38	866	Waziyar	ဝဇီယာ	Thudhamar Road	သုဓမ္မာလမ်း	North Okkalapa	မြောက်ဥက္ကလာပ	16.901323	96.164128
92-Thudhamma	39	862	Thandar	သန္တာ	Thudhamar Road	သုဓမ္မာလမ်း	North Okkalapa	မြောက်ဥက္ကလာပ	16.899026	96.162241
92-Thudhamma	40	883	Ga-gyi Zay	(ဃ) ဈေး	Thudhamar Road	သုဓမ္မာလမ်း	North Okkalapa	မြောက်ဥက္ကလာပ	16.89677	96.159541
92-Thudhamma	41	888	Myauk Okkalar Awine	မြောက်ဥက္ကလာအဝိုင်း	Thudhamar Road	သုဓမ္မာလမ်း	North Okkalapa	မြောက်ဥက္ကလာပ	16.892729094424542	96.15465329959991
92-Thudhamma	42	886	Kyauk Yae Twin	ကျောက်ရေတွင်း	Thudhamar Road	သုဓမ္မာလမ်း	North Okkalapa	မြောက်ဥက္ကလာပ	16.889501887498064	96.15369533188642
92-Thudhamma	43	890	Phone Gyi Lan	ဘုန်းကြီးလမ်း	Thudhamar Road	သုဓမ္မာလမ်း	North Okkalapa	မြောက်ဥက္ကလာပ	16.882105361836498	96.15514125209302
92-Thudhamma	44	1276	Kyaung Kwae	ကျောင်းကွေ့	Phone Gyi Road	ဘုန်းကြီးလမ်း	North Okkalapa	မြောက်ဥက္ကလာပ	16.881386	96.158051
92-Thudhamma	45	1272	Hnit Zay	(၂) ဈေး	Thuzitar Road	သုဇိတာလမ်း	North Okkalapa	မြောက်ဥက္ကလာပ	16.879066	96.158233
92-Thudhamma	46	1279	Kyaung Lan	ကျောင်းလမ်း	Thuzitar Street	သုဇိတာလမ်းသွယ်	North Okkalapa	မြောက်ဥက္ကလာပ	16.876689	96.158391
92-Thudhamma	47	1283	Oak Pon Seik	အုတ်ပုံဆိပ်	Thanthumar Road	သံသုမာလမ်း	North Okkalapa	မြောက်ဥက္ကလာပ	16.873691	96.159359
92-Thudhamma	48	1287	Lay-Thone-Ngar Hmat Taing	(၄၃၅) မှတ်တိုင်	Thanthumar Road	သံသုမာလမ်း	North Okkalapa	မြောက်ဥက္ကလာပ	16.870354	96.161612
92-Thudhamma	49	1289	Lay-Thone-Chauk Hmat Taing	(၄၃၆) မှတ်တိုင်	Thanthumar Road	သံသုမာလမ်း	North Okkalapa	မြောက်ဥက္ကလာပ	16.866730096088645	96.16781502496453
92-Thudhamma	50	2124	Bay Li	ဘေလီ	Thanthumar Road	သံသုမာလမ်း	South Okkalapa	တောင်ဥက္ကလာပ	16.859959	96.178682
92-Thudhamma	51	1078	Myin Thar Zay	မြင်သာဈေး	Thanthumar Road	သံသုမာလမ်း	South Okkalapa	တောင်ဥက္ကလာပ	16.856729	96.18176
92-Thudhamma	52	2128	Thanat Pyit Kwin	သေနတ်ပစ်ကွင်း	Thanthumar Road	သံသုမာလမ်း	South Okkalapa	တောင်ဥက္ကလာပ	16.85446	96.183724
92-Thudhamma	53	1082	Taung Okkalar Paya	တောင်ဥက္ကလာပဘုရား	Thanthumar Road	သံသုမာလမ်း	South Okkalapa	တောင်ဥက္ကလာပ	16.852719277159586	96.18528316263111
92-Thudhamma	54	2146	Kyaetamar	ကျေးတမာ	Thanthumar Road	သံသုမာလမ်း	South Okkalapa	တောင်ဥက္ကလာပ	16.85099840559265	96.1875297012739
92-Thudhamma	55	1086	Moe Swe	မိုးစွေ	Thanthumar Road	သံသုမာလမ်း	South Okkalapa	တောင်ဥက္ကလာပ	16.850030909833936	96.18946552276613
92-Thudhamma	56	2126	Thone-sae-tit Gate/ Tit Gate	(၃၁) ဂိတ်/(၁) ဂိတ်	Thanthumar Road	သံသုမာလမ်း	South Okkalapa	တောင်ဥက္ကလာပ	16.84888036518613	96.1940199136734
92-Thudhamma	57	1089	Se Man Kane	စီမံကိန်း	Thanthumar Road	သံသုမာလမ်း	South Okkalapa	တောင်ဥက္ကလာပ	16.847384520334618	96.1984035652131
92-Thudhamma	58	2403	Lai Sin Yone	လိုင်စင်ရုံး	Thanthumar Road	သံသုမာလမ်း	Thingangyun	သင်္ဃန်းကျွန်း	16.8462149068633	96.2004411220551
92-Thudhamma	59	633	Sanpya Zay/ Nga Moe Yeik	စံပြဈေး/ ငမိုးရိပ်	Thanthumar Road	သံသုမာလမ်း	Thingangyun	သင်္ဃန်းကျွန်း	16.843309	96.203744
92-Thudhamma	60	634	Sanpya Zay/ Nga Moe Yeik	စံပြဈေး/ ငမိုးရိပ်	Lay Daung Kan Road	လေးထောင့်ကန်လမ်း	Thingangyun	သင်္ဃန်းကျွန်း	16.841916421492833	96.20434836717324
92-Thudhamma	61	2160	Myittar Shwe Yi	မေတ္တာရွှေရည်	Lay Daung Kan Road	လေးထောင့်ကန်လမ်း	Thingangyun	သင်္ဃန်းကျွန်း	16.838739	96.201072
92-Thudhamma	62	597	Bawa Myint	ဘဝမြင့်	Lay Daung Kan Road	လေးထောင့်ကန်လမ်း	Thingangyun	သင်္ဃန်းကျွန်း	16.83751062688879	96.19982625707054
92-Thudhamma	63	609	Kalar Su	ကုလားစု	Lay Daung Kan Road	လေးထောင့်ကန်လမ်း	Thingangyun	သင်္ဃန်းကျွန်း	16.835042008650188	96.19725657166784
92-Thudhamma	64	602	B.O.C	ဘီအိုစီ	Lay Daung Kan Road	လေးထောင့်ကန်လမ်း	Thingangyun	သင်္ဃန်းကျွန်း	16.832963	96.195097
92-Thudhamma	65	616	Paya Lan	ဘုရားလမ်း	Lay Daung Kan Road	လေးထောင့်ကန်လမ်း	Thingangyun	သင်္ဃန်းကျွန်း	16.831141607522156	96.1933392752235
92-Thudhamma	66	367	Zawana	ဇဝန	Lay Daung Kan Road	လေးထောင့်ကန်လမ်း	Thingangyun	သင်္ဃန်းကျွန်း	16.828191207971237	96.18817244656385
92-Thudhamma	67	366	Zawana	ဇဝန	Lay Daung Kan Road	လေးထောင့်ကန်လမ်း	Thingangyun	သင်္ဃန်းကျွန်း	16.827762389884697	96.18795190133825
92-Thudhamma	68	615	Paya Lan	ဘုရားလမ်း	Lay Daung Kan Road	လေးထောင့်ကန်လမ်း	Thingangyun	သင်္ဃန်းကျွန်း	16.830714765084345	96.19317076745574
92-Thudhamma	69	601	B.O.C	ဘီအိုစီ	Lay Daung Kan Road	လေးထောင့်ကန်လမ်း	Thingangyun	သင်္ဃန်းကျွန်း	16.83264297934202	96.19510064876523
92-Thudhamma	70	610	Kalar Su	ကုလားစု	Lay Daung Kan Road	လေးထောင့်ကန်လမ်း	Thingangyun	သင်္ဃန်းကျွန်း	16.834929417094717	96.19742584060079
92-Thudhamma	71	598	Bawa Myint	ဘဝမြင့်	Lay Daung Kan Road	လေးထောင့်ကန်လမ်း	Thingangyun	သင်္ဃန်းကျွန်း	16.837140047336906	96.19967010581604
92-Thudhamma	72	2161	Myittar Shwe Yi	မေတ္တာရွှေရည်	Lay Daung Kan Road	လေးထောင့်ကန်လမ်း	Thingangyun	သင်္ဃန်းကျွန်း	16.838646395702437	96.20123337233963
92-Thudhamma	73	635	Sanpya Zay/ Nga Moe Yeik	စံပြဈေး/ ငမိုးရိပ်	Lay Daung Kan Road	လေးထောင့်ကန်လမ်း	Thingangyun	သင်္ဃန်းကျွန်း	16.841989	96.204673
92-Thudhamma	74	632	Sanpya Zay/ Nga Moe Yeik	စံပြဈေး/ ငမိုးရိပ်	Thanthumar Road	သံသုမာလမ်း	Thingangyun	သင်္ဃန်းကျွန်း	16.843237	96.204109
92-Thudhamma	75	613	Lai Sin Yone	လိုင်စင်ရုံး	Thanthumar Road	သံသုမာလမ်း	Thingangyun	သင်္ဃန်းကျွန်း	16.845855511844686	96.20105572510512
92-Thudhamma	76	1090	Se Man Kane	စီမံကိန်း	Thanthumar Road	သံသုမာလမ်း	South Okkalapa	တောင်ဥက္ကလာပ	16.847528417649873	96.19850509101526
92-Thudhamma	77	1088	Thone-sae-tit Gate/ Tit Gate	(၃၁) ဂိတ်/(၁) ဂိတ်	Thanthumar Road	သံသုမာလမ်း	South Okkalapa	တောင်ဥက္ကလာပ	16.84893896654162	96.19427426252517
92-Thudhamma	78	1087	Moe Swe	မိုးစွေ	Thanthumar Road	သံသုမာလမ်း	South Okkalapa	တောင်ဥက္ကလာပ	16.850145665093024	96.18961987551303
92-Thudhamma	79	2129	Kyaetamar	ကျေးတမာ	Thanthumar Road	သံသုမာလမ်း	South Okkalapa	တောင်ဥက္ကလာပ	16.851082075031954	96.18764438666405
92-Thudhamma	80	1083	Taung Okkalar Paya	တောင်ဥက္ကလာပဘုရား	Thanthumar Road	သံသုမာလမ်း	South Okkalapa	တောင်ဥက္ကလာပ	16.8528135748857	96.18543030694127
92-Thudhamma	81	2127	Thanat Pyit Kwin	သေနတ်ပစ်ကွင်း	Thanthumar Road	သံသုမာလမ်း	South Okkalapa	တောင်ဥက္ကလာပ	16.854523480112608	96.18384222965688
92-Thudhamma	82	1079	Myin Thar Zay	မြင်သာဈေး	Thanthumar Road	သံသုမာလမ်း	South Okkalapa	တောင်ဥက္ကလာပ	16.856863	96.181911
92-Thudhamma	83	1075	Bay Li	ဘေလီ	Thanthumar Road	သံသုမာလမ်း	South Okkalapa	တောင်ဥက္ကလာပ	16.85981610253591	96.17896331241356
92-Thudhamma	84	1288	Lay-Thone-Chauk Hmat Taing	(၄၃၆) မှတ်တိုင်	Thanthumar Road	သံသုမာလမ်း	North Okkalapa	မြောက်ဥက္ကလာပ	16.866689	96.168215
92-Thudhamma	85	1286	Lay-Thone-Ngar Hmat Taing	(၄၃၅) မှတ်တိုင်	Thanthumar Road	သံသုမာလမ်း	North Okkalapa	မြောက်ဥက္ကလာပ	16.870478	96.16174
92-Thudhamma	86	1282	Oak Pon Seik	အုတ်ပုံဆိပ်	Thanthumar Road	သံသုမာလမ်း	North Okkalapa	မြောက်ဥက္ကလာပ	16.87365	96.159584
92-Thudhamma	87	1278	Kyaung Lan	ကျောင်းလမ်း	Thuzitar Street	သုဇိတာလမ်းသွယ်	North Okkalapa	မြောက်ဥက္ကလာပ	16.876771	96.15867
92-Thudhamma	88	1273	Hnit Zay	(၂) ဈေး	Thuzitar Road	သုဇိတာလမ်း	North Okkalapa	မြောက်ဥက္ကလာပ	16.879179	96.158356
92-Thudhamma	89	1277	Kyaung Kwae	ကျောင်းကွေ့	Phone Gyi Road	ဘုန်းကြီးလမ်း	North Okkalapa	မြောက်ဥက္ကလာပ	16.881479	96.158035
92-Thudhamma	90	889	Phone Gyi Lan	ဘုန်းကြီးလမ်း	Thudhamar Road	သုဓမ္မာလမ်း	North Okkalapa	မြောက်ဥက္ကလာပ	16.881808877188373	96.15557153709234
92-Thudhamma	91	885	Kyauk Yae Twin	ကျောက်ရေတွင်း	Thudhamar Road	သုဓမ္မာလမ်း	North Okkalapa	မြောက်ဥက္ကလာပ	16.88791116167424	96.15428918972613
92-Thudhamma	92	887	Myauk Okkalar Awine	မြောက်ဥက္ကလာအဝိုင်း	Thudhamar Road	သုဓမ္မာလမ်း	North Okkalapa	မြောက်ဥက္ကလာပ	16.892739761327437	96.15506128873677
92-Thudhamma	93	882	Ga-gyi Zay	(ဃ) ဈေး	Thudhamar Road	သုဓမ္မာလမ်း	North Okkalapa	မြောက်ဥက္ကလာပ	16.896452	96.159434
92-Thudhamma	94	861	Thandar	သန္တာ	Thudhamar Road	သုဓမ္မာလမ်း	North Okkalapa	မြောက်ဥက္ကလာပ	16.898997	96.162273
92-Thudhamma	95	865	Waziyar	ဝဇီယာ	Thudhamar Road	သုဓမ္မာလမ်း	North Okkalapa	မြောက်ဥက္ကလာပ	16.901507	96.16437
92-Thudhamma	96	863	Thu Nandar	သုနန္ဒာ	Thudhamar Road	သုဓမ္မာလမ်း	North Okkalapa	မြောက်ဥက္ကလာပ	16.90436155507222	96.16570844314994
92-Thudhamma	97	842	Eindar	က္ကန္ဒာ	Thudhamar Road	သုဓမ္မာလမ်း	North Okkalapa	မြောက်ဥက္ကလာပ	16.906969	96.16621
92-Thudhamma	98	857	Ou Zanar	ဥဇ္ဇနာ	Thudhamar Road	သုဓမ္မာလမ်း	North Okkalapa	မြောက်ဥက္ကလာပ	16.910726	96.166001
92-Thudhamma	99	848	Kan Tharyar	ကန်သာယာ	Thudhamar Road	သုဓမ္မာလမ်း	North Okkalapa	မြောက်ဥက္ကလာပ	16.91255523875324	96.1656310572289
92-Thudhamma	100	1823	Ayar	ဧရာ	Thudhamar Road	သုဓမ္မာလမ်း	North Okkalapa	မြောက်ဥက္ကလာပ	16.91730295539416	96.16369077237324
92-Thudhamma	101	818	Chauk Kwae	(၆) ကွေ့	Thudhamar Road	သုဓမ္မာလမ်း	North Okkalapa	မြောက်ဥက္ကလာပ	16.919091	96.162873
92-Thudhamma	102	810	Dhamar Yon	ဓမ္မာရုံ	Thudhamar Road	သုဓမ္မာလမ်း	North Okkalapa	မြောက်ဥက္ကလာပ	16.924198	96.158284
92-Thudhamma	103	813	Aung Mingalar A Way Pyay	အောင်မင်္ဂလာအဝေးပြေး	Thudhamar Road	သုဓမ္မာလမ်း	North Okkalapa	မြောက်ဥက္ကလာပ	16.926473729963266	96.15626067621635
92-Thudhamma	104	815	Tat Htate	တပ်ထိပ်	Thudhamar Road	သုဓမ္မာလမ်း	North Okkalapa	မြောက်ဥက္ကလာပ	16.9300066563304	96.154864858836
92-Thudhamma	105	1419	Ah-Hmat-Thone Lan Sone	အမှတ် (၃) လမ်းဆုံ	No. 3 Main Road	အမှတ်(၃)လမ်းမ	Mingalardon	မင်္ဂလာဒုံ	16.936410575360362	96.15300512406976
92-Thudhamma	106	1416	Alal Pauk	အလယ်ပေါက်	No. 3 Main Road	အမှတ်(၃)လမ်းမ	Mingalardon	မင်္ဂလာဒုံ	16.940866	96.15189
92-Thudhamma	107	590	Ta Yar Yone	တရားရုံး	No. 3 Main Road	အမှတ်(၃)လမ်းမ	Mingalardon	မင်္ဂလာဒုံ	16.948091	96.150602
92-Thudhamma	108	1423	Oh Eain	အိုးအိမ်	No. 3 Main Road	အမှတ်(၃)လမ်းမ	Mingalardon	မင်္ဂလာဒုံ	16.953099	96.149787
92-Thudhamma	109	1420	Nyaung Pin	ညောင်ပင်	No. 3 Main Road	အမှတ်(၃)လမ်းမ	Mingalardon	မင်္ဂလာဒုံ	16.957102	96.1491
92-Thudhamma	110	1424	Thingangyun	သင်္ဃန်းကျွန်း	No. 3 Main Road	အမှတ်(၃)လမ်းမ	Mingalardon	မင်္ဂလာဒုံ	16.96252	96.148303
92-Thudhamma	111	51	Sae-Hnit Lan	(၁၂) လမ်း	No. 3 Main Road	အမှတ်(၃)လမ်းမ	Mingalardon	မင်္ဂလာဒုံ	16.964706	96.148168
92-Thudhamma	112	1450	Palae Eain Yar	ပုလဲအိမ်ယာ	No. 3 Main Road	အမှတ်(၃)လမ်းမ	Mingalardon	မင်္ဂလာဒုံ	16.96878	96.14807
92-Thudhamma	113	1448	Chauk Lan	(၆) လမ်း	No. 3 Main Road	အမှတ်(၃)လမ်းမ	Mingalardon	မင်္ဂလာဒုံ	16.970627	96.147941
92-Thudhamma	114	1458	Yakhine Kyaung	ရခိုင်ကျောင်း	No. 3 Main Road	အမှတ်(၃)လမ်းမ	Mingalardon	မင်္ဂလာဒုံ	16.974013	96.147877
92-Thudhamma	115	1454	Tadar Phyu	တံတားဖြူ	No. 3 Main Road	အမှတ်(၃)လမ်းမ	Mingalardon	မင်္ဂလာဒုံ	16.977277	96.14777
92-Thudhamma	116	1453	Palae Lan Sone	ပုလဲလမ်းဆုံ	No. 3 Main Road	အမှတ်(၃)လမ်းမ	Mingalardon	မင်္ဂလာဒုံ	16.981915	96.147276
92-Thudhamma	117	1457	Thone Thone Lone	သုံးသုံးလုံး	No. 3 Main Road	အမှတ်(၃)လမ်းမ	Mingalardon	မင်္ဂလာဒုံ	16.984069	96.146611
92-Thudhamma	118	1428	Hmoe Yon	မှိုုရုံ	No. 3 Main Road	အမှတ်(၃)လမ်းမ	Mingalardon	မင်္ဂလာဒုံ	16.988995	96.144723
92-Thudhamma	119	55	Nilar	နီလာ	No. 3 Main Road	အမှတ်(၃)လမ်းမ	Mingalardon	မင်္ဂလာဒုံ	16.992381	96.144336
92-Thudhamma	120	1440	Saing Bote	ဆိုင်းဘုတ်	No. 3 Main Road	အမှတ်(၃)လမ်းမ	Mingalardon	မင်္ဂလာဒုံ	16.99431	96.144186
92-Thudhamma	121	1432	London Set Yon	လန်ဒန်စက်ရုံ	No. 3 Main Road	အမှတ်(၃)လမ်းမ	Mingalardon	မင်္ဂလာဒုံ	16.99669	96.144723
92-Thudhamma	122	1465	Kon Ta La Paung	ကုန်းတလပေါင်	No. 3 Main Road	အမှတ်(၃)လမ်းမ	Mingalardon	မင်္ဂလာဒုံ	17.000732	96.144658
92-Thudhamma	123	1479	Tat Yin Koe	တပ်ရင်း (၉)	No. 3 Main Road	အမှတ်(၃)လမ်းမ	Mingalardon	မင်္ဂလာဒုံ	17.003503	96.14453
92-Thudhamma	124	1482	Yae Set	ရေစက်	No. 3 Main Road	အမှတ်(၃)လမ်းမ	Mingalardon	မင်္ဂလာဒုံ	17.006313735772967	96.14486009348187
92-Thudhamma	125	1476	Site Thit	ဆိုက်သစ်	No. 3 Set Thwe Road	အမှတ်(၃)စက်သွယ်လမ်း	Mingalardon	မင်္ဂလာဒုံ	17.015137	96.145474
92-Thudhamma	126	1480	War Saing	ဝါးဆိုင်	No. 3 Set Thwe Road	အမှတ်(၃)စက်သွယ်လမ်း	Mingalardon	မင်္ဂလာဒုံ	17.019897	96.142963
92-Thudhamma	127	61	Nwe Khwe	နွယ်ခွေ	No. 3 Set Thwe Road	အမှတ်(၃)စက်သွယ်လမ်း	Mingalardon	မင်္ဂလာဒုံ	17.022462	96.14071
92-Thudhamma	128	1471	Lay Yat Kwet	(၄) ရပ်ကွက်	No. 3 Set Thwe Road	အမှတ်(၃)စက်သွယ်လမ်း	Mingalardon	မင်္ဂလာဒုံ	17.02437	96.13865
92-Thudhamma	129	66	Tit Yat Kwat	(၁) ရပ်ကွက်	No. 3 Set Thwe Road	အမှတ်(၃)စက်သွယ်လမ်း	Mingalardon	မင်္ဂလာဒုံ	17.026483	96.136247
92-Thudhamma	130	1469	Kyaung Shae	ကျောင်းရှေ့	No. 1 Main Road	အမှတ်(၁)လမ်းမ	Mingalardon	မင်္ဂလာဒုံ	17.03120950570694	96.1321399686858
92-Thudhamma	131	2206	Lan Thit	လမ်းသစ်	No. 1 Main Road	အမှတ်(၁)လမ်းမ	Mingalardon	မင်္ဂလာဒုံ	17.037527726843194	96.13150835037233
92-Thudhamma	132	1970	Htauk Kyant Lan Sone	ထောက်ကြန့်လမ်းဆုံ	No. 1 Main Road	အမှတ်(၁)လမ်းမ	Mingalardon	မင်္ဂလာဒုံ	17.042337215160796	96.133386567235
